city,state,country,ngo_shelter_name,shelter_type,address,latitude,longitude,phone,email,capacity,services_offered
Bangalore,Karnataka,India,Bangalore Baptist Hospital Shelter,Medical Care,Bellary Road,12.9716,77.5946,+91-80-22271519,info@bbh.org.in,50,"Medical care, food, temporary accommodation"
Bangalore,Karnataka,India,Shelter for Women and Children,Women & Children,Koramangala,12.9279,77.6271,+91-80-25531234,shelter@koramangala.org,75,"Women's shelter, childcare, counseling"
Bangalore,Karnataka,India,Hope Foundation Shelter,General,Whitefield,12.9698,77.7500,+91-80-28453678,hope@foundation.org,100,"Food, shelter, rehabilitation"
Bangalore,Karnataka,India,Christ Church Shelter,Religious,Richmond Town,12.9581,77.6050,+91-80-22212345,christ@shelter.org,40,"Temporary accommodation, meals"
Bangalore,Karnataka,India,Mother Teresa Shelter,Elderly Care,Shivajinagar,12.9820,77.6094,+91-80-25597890,teresa@care.org,60,"Elderly care, medical support"
Jaipur,Rajasthan,India,Pink City Shelter Home,General,Civil Lines,26.9124,75.7873,+91-141-2367890,pink@shelter.org,80,"Food, accommodation, job training"
Jaipur,Rajasthan,India,Rajasthan Women's Shelter,Women,Malviya Nagar,26.8467,75.8148,+91-141-2789012,women@rajasthan.org,90,"Women's safety, legal aid, counseling"
Jaipur,Rajasthan,India,Amber Fort Charitable Shelter,General,Amer,26.9855,75.8513,+91-141-2234567,amber@charity.org,70,"Temporary shelter, meals"
Jaipur,Rajasthan,India,Jaipur Children's Home,Children,Jhotwara,26.9700,75.7300,+91-141-2456789,children@jaipur.org,120,"Child care, education, shelter"
Jaipur,Rajasthan,India,Desert Rose Shelter,General,Sanganer,26.8175,75.7739,+91-141-2678901,desert@rose.org,65,"Food, shelter, medical care"
Delhi,Delhi,India,Delhi Urban Shelter,Homeless,Connaught Place,28.6139,77.2090,+91-11-23456789,urban@delhi.gov.in,200,"Night shelter, meals, medical aid"
Delhi,Delhi,India,Red Cross Shelter Delhi,Emergency,Lajpat Nagar,28.5677,77.2434,+91-11-24567890,redcross@delhi.org,150,"Emergency shelter, disaster relief"
Delhi,Delhi,India,Lotus Temple Community Shelter,Religious,Kalkaji,28.5535,77.2588,+91-11-26834029,lotus@temple.org,100,"Spiritual care, temporary accommodation"
Delhi,Delhi,India,Delhi Women's Crisis Center,Women,Laxmi Nagar,28.6326,77.2773,+91-11-22345678,crisis@women.org,80,"Women's shelter, legal support"
Delhi,Delhi,India,Capital Children's Shelter,Children,Rohini,28.7041,77.1025,+91-11-27890123,capital@children.org,180,"Child protection, education"
Delhi,Delhi,India,Old Delhi Heritage Shelter,Elderly,Chandni Chowk,28.6506,77.2300,+91-11-23567890,heritage@elderly.org,60,"Elderly care, cultural programs"
Hyderabad,Telangana,India,Charminar Community Shelter,General,Old City,17.3616,78.4747,+91-40-24567890,charminar@shelter.org,110,"Food, shelter, community support"
Hyderabad,Telangana,India,Hyderabad IT Shelter,Tech Workers,Gachibowli,17.4399,78.3489,+91-40-23456789,it@shelter.hyd,70,"Tech worker support, networking"
Hyderabad,Telangana,India,Nizami Shelter Foundation,Religious,Secunderabad,17.4399,78.4983,+91-40-27890234,nizami@foundation.org,95,"Religious shelter, community meals"
Hyderabad,Telangana,India,Golconda Women's Shelter,Women,Tolichowki,17.4006,78.3957,+91-40-23678901,golconda@women.org,85,"Women's safety, skill development"
Hyderabad,Telangana,India,HITEC City Shelter,General,Madhapur,17.4484,78.3915,+91-40-23789012,hitec@shelter.org,130,"Modern facilities, job placement"
Mumbai,Maharashtra,India,Gateway Shelter Mumbai,General,Colaba,18.9220,72.8347,+91-22-22567890,gateway@mumbai.org,250,"Large capacity, multiple services"
Mumbai,Maharashtra,India,Bollywood Charitable Shelter,Entertainment,Bandra,19.0596,72.8295,+91-22-26789012,bollywood@charity.org,120,"Entertainment industry support"
Mumbai,Maharashtra,India,Marine Drive Shelter,Coastal,Marine Drive,18.9441,72.8224,+91-22-22234567,marine@shelter.org,80,"Coastal community support"
Mumbai,Maharashtra,India,Dharavi Community Center,Slum Support,Dharavi,19.0430,72.8570,+91-22-24567890,dharavi@community.org,300,"Slum rehabilitation, skills training"
Kolkata,West Bengal,India,Howrah Bridge Shelter,General,Howrah,22.5958,88.2636,+91-33-26567890,howrah@shelter.org,180,"Bridge community, transportation hub"
Kolkata,West Bengal,India,Victoria Memorial Shelter,Heritage,Maidan,22.5448,88.3426,+91-33-22456789,victoria@heritage.org,90,"Heritage area support"
Kolkata,West Bengal,India,Mother Teresa Home,Charity,Park Street,22.5551,88.3525,+91-33-22678901,mother@teresa.org,150,"Following Mother Teresa's mission"
Chennai,Tamil Nadu,India,Marina Beach Shelter,Coastal,Marina Beach,13.0475,80.2824,+91-44-24567890,marina@chennai.org,170,"Coastal community, fishing families"
Chennai,Tamil Nadu,India,T. Nagar Commercial Shelter,Commercial,T. Nagar,13.0418,80.2341,+91-44-28234567,tnagar@commercial.org,95,"Commercial area workers"
Chennai,Tamil Nadu,India,Mylapore Temple Shelter,Religious,Mylapore,13.0339,80.2619,+91-44-24678901,mylapore@temple.org,110,"Religious community support"
Pune,Maharashtra,India,Shivajinagar Shelter Pune,General,Shivajinagar,18.5309,73.8443,+91-20-25567890,shivaji@pune.org,140,"General community support"
Pune,Maharashtra,India,Pune IT Park Shelter,Technology,Hinjewadi,18.5912,73.7387,+91-20-22456789,itpark@pune.org,85,"IT professionals support"
Ahmedabad,Gujarat,India,Sabarmati Ashram Shelter,Gandhian,Sabarmati,23.0612,72.5797,+91-79-27567890,sabarmati@ashram.org,120,"Gandhian philosophy, peace"
Ahmedabad,Gujarat,India,Old City Heritage Shelter,Heritage,Manek Chowk,23.0225,72.5714,+91-79-25456789,heritage@ahmedabad.org,75,"Heritage preservation support"
Surat,Gujarat,India,Diamond City Shelter,Commercial,Varachha,21.2187,72.8725,+91-261-2567890,diamond@surat.org,160,"Diamond industry workers"
Surat,Gujarat,India,Textile Hub Shelter,Industrial,Sachin,21.0933,72.8527,+91-261-2456789,textile@surat.org,200,"Textile workers support"
Kanpur,Uttar Pradesh,India,Ganga Ghat Shelter,Riverside,Ganga Ghat,26.4499,80.3319,+91-512-2567890,ganga@kanpur.org,130,"Riverside community"
Kanpur,Uttar Pradesh,India,Industrial Shelter Kanpur,Industrial,Panki,26.4073,80.2329,+91-512-2456789,industrial@kanpur.org,180,"Industrial workers"
Lucknow,Uttar Pradesh,India,Imambara Heritage Shelter,Heritage,Hussainabad,26.8739,80.9132,+91-522-2567890,imambara@lucknow.org,110,"Heritage area support"
Lucknow,Uttar Pradesh,India,Nawabi Shelter,Cultural,Hazratganj,26.8467,80.9462,+91-522-2456789,nawabi@lucknow.org,95,"Cultural preservation"
Nagpur,Maharashtra,India,Orange City Shelter,Agricultural,Sitabuldi,21.1458,79.0882,+91-712-2567890,orange@nagpur.org,125,"Agricultural community"
Nagpur,Maharashtra,India,Central India Shelter,Regional,Dharampeth,21.1307,79.0636,+91-712-2456789,central@nagpur.org,140,"Regional hub support"
Indore,Madhya Pradesh,India,Holkar Heritage Shelter,Royal Heritage,Rajwada,22.7196,75.8577,+91-731-2567890,holkar@indore.org,105,"Royal heritage area"
Indore,Madhya Pradesh,India,Commercial Hub Shelter,Commercial,MG Road,22.7279,75.8723,+91-731-2456789,commercial@indore.org,115,"Commercial district"
Thane,Maharashtra,India,Creek Side Shelter,Waterfront,Thane Creek,19.2183,72.9781,+91-22-25567890,creek@thane.org,90,"Waterfront community"
Thane,Maharashtra,India,Lake City Shelter,Lakeside,Upvan Lake,19.2147,72.9600,+91-22-25456789,lake@thane.org,75,"Lake community support"
Bhopal,Madhya Pradesh,India,Lake View Shelter,Lakeside,Upper Lake,23.2599,77.4126,+91-755-2567890,lakeview@bhopal.org,100,"Lakeside community"
Bhopal,Madhya Pradesh,India,Pink City Shelter Bhopal,General,New Market,23.2515,77.4044,+91-755-2456789,pink@bhopal.org,120,"General community support"
Visakhapatnam,Andhra Pradesh,India,Port City Shelter,Maritime,Harbour,17.6868,83.2185,+91-891-2567890,port@vizag.org,150,"Maritime community"
Visakhapatnam,Andhra Pradesh,India,Beach Road Shelter,Coastal,RK Beach,17.7231,83.3238,+91-891-2456789,beach@vizag.org,110,"Beach community"
Patna,Bihar,India,Ganga Bank Shelter,Riverside,Gandhi Ghat,25.6093,85.1376,+91-612-2567890,ganga@patna.org,140,"Riverside community"
Patna,Bihar,India,Pataliputra Heritage Shelter,Ancient Heritage,Kumhrar,25.5941,85.1376,+91-612-2456789,pataliputra@patna.org,85,"Ancient heritage site"
Vadodara,Gujarat,India,Cultural City Shelter,Cultural,Sayajigunj,22.3072,73.1812,+91-265-2567890,cultural@vadodara.org,130,"Cultural community"
Vadodara,Gujarat,India,Palace City Shelter,Royal,Laxmi Vilas Palace,22.2845,73.1866,+91-265-2456789,palace@vadodara.org,95,"Palace area support"
Ludhiana,Punjab,India,Industrial Hub Shelter,Industrial,Focal Point,30.9010,75.8573,+91-161-2567890,industrial@ludhiana.org,160,"Industrial workers"
Ludhiana,Punjab,India,Sports City Shelter,Sports,Guru Nanak Stadium,30.9000,75.8500,+91-161-2456789,sports@ludhiana.org,100,"Sports community"
Agra,Uttar Pradesh,India,Taj Mahal Shelter,Tourist,Taj Ganj,27.1751,78.0421,+91-562-2567890,taj@agra.org,200,"Tourist area support"
Agra,Uttar Pradesh,India,Heritage Triangle Shelter,UNESCO,Fatehpur Sikri,27.0947,77.6610,+91-562-2456789,heritage@agra.org,150,"UNESCO heritage site"
Nashik,Maharashtra,India,Wine Country Shelter,Agricultural,Gangapur Road,19.9975,73.7898,+91-253-2567890,wine@nashik.org,120,"Wine industry workers"
Nashik,Maharashtra,India,Pilgrimage Shelter,Religious,Panchavati,19.9615,73.7811,+91-253-2456789,pilgrimage@nashik.org,180,"Religious pilgrims"
Faridabad,Haryana,India,Industrial Town Shelter,Industrial,Sector 16,28.4089,77.3178,+91-129-2567890,industrial@faridabad.org,140,"Industrial community"
Faridabad,Haryana,India,Satellite City Shelter,Urban,NIT,28.3670,77.3100,+91-129-2456789,satellite@faridabad.org,110,"Urban development"
Meerut,Uttar Pradesh,India,Sports Equipment Shelter,Manufacturing,Sadar Bazaar,28.9845,77.7064,+91-121-2567890,sports@meerut.org,125,"Manufacturing workers"
Meerut,Uttar Pradesh,India,Educational Hub Shelter,Academic,University Campus,29.0156,77.7207,+91-121-2456789,education@meerut.org,90,"Academic community"
Rajkot,Gujarat,India,Kathiawar Shelter,Regional,Race Course,22.3039,70.8022,+91-281-2567890,kathiawar@rajkot.org,115,"Regional community"
Rajkot,Gujarat,India,Engineering Hub Shelter,Technical,Aji Dam Road,22.2735,70.7512,+91-281-2456789,engineering@rajkot.org,135,"Technical education"
Kalyan,Maharashtra,India,Dombivli Junction Shelter,Transportation,Railway Station,19.2403,73.1305,+91-251-2567890,junction@kalyan.org,100,"Transportation hub"
Kalyan,Maharashtra,India,Twin City Shelter,Urban,Kalyan West,19.2437,73.1355,+91-251-2456789,twin@kalyan.org,120,"Twin city support"
Vasai,Maharashtra,India,Fort City Shelter,Historical,Vasai Fort,19.4668,72.8155,+91-250-2567890,fort@vasai.org,85,"Historical preservation"
Vasai,Maharashtra,India,Coastal Belt Shelter,Coastal,Nalasopara,19.4230,72.7972,+91-250-2456789,coastal@vasai.org,105,"Coastal community"
Varanasi,Uttar Pradesh,India,Holy City Shelter,Spiritual,Dashashwamedh Ghat,25.3176,83.0104,+91-542-2567890,holy@varanasi.org,250,"Spiritual pilgrims"
Varanasi,Uttar Pradesh,India,Ganga Ghat Shelter,Sacred River,Assi Ghat,25.2820,83.0076,+91-542-2456789,ganga@varanasi.org,200,"Sacred river community"
Srinagar,Jammu and Kashmir,India,Dal Lake Shelter,Scenic,Dal Lake,34.1362,74.8647,+91-194-2567890,dal@srinagar.org,90,"Scenic location support"
Srinagar,Jammu and Kashmir,India,Valley Shelter,Mountain,Nishat Garden,34.1608,74.8492,+91-194-2456789,valley@srinagar.org,110,"Mountain community"
Aurangabad,Maharashtra,India,Cave City Shelter,Heritage,Ajanta Caves,20.5472,75.7026,+91-240-2567890,caves@aurangabad.org,140,"Heritage site support"
Aurangabad,Maharashtra,India,Industrial Shelter Aurangabad,Manufacturing,Waluj MIDC,19.8597,75.2765,+91-240-2456789,industrial@aurangabad.org,160,"Manufacturing hub"
Dhanbad,Jharkhand,India,Coal City Shelter,Mining,Jharia,23.7957,86.4304,+91-326-2567890,coal@dhanbad.org,180,"Mining community"
Dhanbad,Jharkhand,India,Energy Hub Shelter,Industrial,ISM Campus,23.8103,86.4410,+91-326-2456789,energy@dhanbad.org,130,"Energy sector"
Amritsar,Punjab,India,Golden Temple Shelter,Religious,Golden Temple,31.6200,74.8765,+91-183-2567890,golden@amritsar.org,300,"Religious community"
Amritsar,Punjab,India,Border City Shelter,International,Wagah Border,31.6040,74.9200,+91-183-2456789,border@amritsar.org,150,"Border community"
Allahabad,Uttar Pradesh,India,Sangam City Shelter,Sacred Junction,Triveni Sangam,25.4358,81.8463,+91-532-2567890,sangam@allahabad.org,220,"Sacred junction"
Allahabad,Uttar Pradesh,India,Kumbh Mela Shelter,Festival,Mela Grounds,25.4484,81.8417,+91-532-2456789,kumbh@allahabad.org,500,"Festival support"
Ranchi,Jharkhand,India,Plateau Shelter,Highland,Morabadi Ground,23.3441,85.3096,+91-651-2567890,plateau@ranchi.org,125,"Highland community"
Ranchi,Jharkhand,India,Tribal Welfare Shelter,Indigenous,Main Road,23.3441,85.3096,+91-651-2456789,tribal@ranchi.org,170,"Indigenous community"
Howrah,West Bengal,India,Industrial Belt Shelter,Manufacturing,GT Road,22.5958,88.2636,+91-33-26567890,belt@howrah.org,190,"Manufacturing belt"
Howrah,West Bengal,India,River Bank Shelter,Riverside,Hooghly River,22.5726,88.3639,+91-33-26456789,river@howrah.org,140,"Riverside community"
Jabalpur,Madhya Pradesh,India,Marble Rock Shelter,Natural,Bhedaghat,23.1315,79.8101,+91-761-2567890,marble@jabalpur.org,100,"Natural beauty area"
Jabalpur,Madhya Pradesh,India,Cantonment Shelter,Military,Cantonment Area,23.1815,79.9864,+91-761-2456789,cantonment@jabalpur.org,120,"Military community"
Gwalior,Madhya Pradesh,India,Fort City Shelter,Historical,Gwalior Fort,26.2183,78.1828,+91-751-2567890,fort@gwalior.org,130,"Historical fort area"
Gwalior,Madhya Pradesh,India,Music City Shelter,Cultural,Tansen Memorial,26.2124,78.1772,+91-751-2456789,music@gwalior.org,95,"Music cultural center"
Coimbatore,Tamil Nadu,India,Textile City Shelter,Industrial,RS Puram,11.0168,76.9558,+91-422-2567890,textile@coimbatore.org,160,"Textile industry"
Coimbatore,Tamil Nadu,India,Hill Station Shelter,Tourism,Ooty Road,11.0510,76.8580,+91-422-2456789,hills@coimbatore.org,110,"Hill station tourism"
Vijayawada,Andhra Pradesh,India,Krishna River Shelter,Riverside,Krishna Riverfront,16.5062,80.6480,+91-866-2567890,krishna@vijayawada.org,150,"River community"
Vijayawada,Andhra Pradesh,India,Commercial Hub Shelter,Business,MG Road,16.5079,80.6197,+91-866-2456789,commercial@vijayawada.org,135,"Business district"
Jodhpur,Rajasthan,India,Blue City Shelter,Heritage,Clock Tower,26.2389,73.0243,+91-291-2567890,blue@jodhpur.org,140,"Heritage blue city"
Jodhpur,Rajasthan,India,Desert Shelter,Arid Region,Mandore,26.2853,73.0378,+91-291-2456789,desert@jodhpur.org,115,"Desert community"
Madurai,Tamil Nadu,India,Temple City Shelter,Religious,Meenakshi Temple,9.9195,78.1193,+91-452-2567890,temple@madurai.org,180,"Temple city support"
Madurai,Tamil Nadu,India,Cultural Heritage Shelter,Traditional,Thirumalai Nayakkar Mahal,9.9252,78.1198,+91-452-2456789,cultural@madurai.org,120,"Cultural heritage"
Raipur,Chhattisgarh,India,New Capital Shelter,Administrative,New Raipur,21.2514,81.6296,+91-771-2567890,capital@raipur.org,145,"Administrative capital"
Raipur,Chhattisgarh,India,Industrial Shelter Raipur,Steel Industry,Urla Industrial Area,21.2787,81.6337,+91-771-2456789,steel@raipur.org,170,"Steel industry"
Kota,Rajasthan,India,Education City Shelter,Academic,Coaching Institutes,25.2138,75.8648,+91-744-2567890,education@kota.org,200,"Education hub"
Kota,Rajasthan,India,Chambal Shelter,Riverside,Chambal Garden,25.1816,75.8345,+91-744-2456789,chambal@kota.org,125,"Riverside support"
Chandigarh,Punjab,India,Planned City Shelter,Modern Urban,Sector 17,30.7333,76.7794,+91-172-2567890,planned@chandigarh.org,160,"Planned city"
Chandigarh,Punjab,India,Rose Garden Shelter,Garden City,Zakir Hussain Rose Garden,30.7588,76.7767,+91-172-2456789,rose@chandigarh.org,100,"Garden city support"
Guwahati,Assam,India,Gateway Northeast Shelter,Regional,Fancy Bazaar,26.1832,91.7514,+91-361-2567890,gateway@guwahati.org,130,"Northeast gateway"
Guwahati,Assam,India,Brahmaputra Shelter,Riverine,Brahmaputra Riverfront,26.1433,91.7898,+91-361-2456789,brahmaputra@guwahati.org,145,"River community"
Mysore,Karnataka,India,Palace City Shelter,Royal Heritage,Mysore Palace,12.3051,76.6551,+91-821-2567890,palace@mysore.org,120,"Royal palace area"
Mysore,Karnataka,India,Sandalwood City Shelter,Fragrance Industry,Devaraja Market,12.3015,76.6553,+91-821-2456789,sandalwood@mysore.org,95,"Fragrance industry"
Tirupati,Andhra Pradesh,India,Tirumala Shelter,Pilgrimage,Tirumala Hills,13.6288,79.4192,+91-877-2567890,tirumala@tirupati.org,300,"Pilgrimage support, accommodation"
Tirupati,Andhra Pradesh,India,Temple Town Shelter,Religious,Car Street,13.6540,79.4170,+91-877-2456789,temple@tirupati.org,250,"Religious community support"
Guntur,Andhra Pradesh,India,Agricultural Hub Shelter,Farming,Collectorate Complex,16.3067,80.4365,+91-863-2567890,agri@guntur.org,140,"Agricultural community"
Guntur,Andhra Pradesh,India,Chilli Market Shelter,Commercial,Guntur Market,16.3000,80.4400,+91-863-2456789,chilli@guntur.org,110,"Market traders support"
Warangal,Telangana,India,Kakatiya Shelter,Heritage,Thousand Pillar Temple,17.9689,79.5941,+91-870-2567890,kakatiya@warangal.org,125,"Heritage preservation"
Warangal,Telangana,India,Weavers Colony Shelter,Textile,Hanamkonda,18.0038,79.5734,+91-870-2456789,weavers@warangal.org,160,"Textile weavers support"
Nellore,Andhra Pradesh,India,Coastal City Shelter,Fishing,Fishing Harbor,14.4426,79.9865,+91-861-2567890,coastal@nellore.org,130,"Fishing community"
Nellore,Andhra Pradesh,India,Aqua Culture Shelter,Marine,Sullurpeta,13.7500,79.9000,+91-861-2456789,aqua@nellore.org,115,"Marine culture support"
Kurnool,Andhra Pradesh,India,Rayalaseema Shelter,Regional,Kurnool Fort,15.8281,78.0373,+91-851-2567890,rayala@kurnool.org,135,"Regional community"
Kurnool,Andhra Pradesh,India,Mining Belt Shelter,Mining,Cement Factory Area,15.8100,78.0500,+91-851-2456789,mining@kurnool.org,150,"Mining workers"
Anantapur,Andhra Pradesh,India,Drought Relief Shelter,Agricultural,Collector Office,14.6819,77.6006,+91-855-2567890,drought@anantapur.org,180,"Drought affected farmers"
Anantapur,Andhra Pradesh,India,Groundnut Farmers Shelter,Farming,APMC Yard,14.6700,77.6100,+91-855-2456789,groundnut@anantapur.org,145,"Groundnut farmers support"
Kadapa,Andhra Pradesh,India,Cuddapah Shelter,Regional,Gandhi Road,14.4673,78.8241,+91-856-2567890,cuddapah@kadapa.org,120,"Regional development"
Kadapa,Andhra Pradesh,India,Barytes Mining Shelter,Industrial,Jammalamadugu,14.8469,78.3831,+91-856-2456789,barytes@kadapa.org,135,"Mining industry"
Chittoor,Andhra Pradesh,India,Mango City Shelter,Agricultural,Tirupati Road,13.2172,79.1003,+91-877-2567890,mango@chittoor.org,125,"Mango farmers support"
Chittoor,Andhra Pradesh,India,Border District Shelter,Interstate,Tamil Nadu Border,13.2000,79.1000,+91-877-2456789,border@chittoor.org,110,"Interstate community"
Eluru,Andhra Pradesh,India,West Godavari Shelter,Deltaic,Godavari Delta,16.7107,81.0948,+91-881-2567890,godavari@eluru.org,140,"Delta community"
Eluru,Andhra Pradesh,India,Coconut Farmers Shelter,Agriculture,Coconut Gardens,16.7000,81.1000,+91-881-2456789,coconut@eluru.org,125,"Coconut cultivation"
Rajahmundry,Andhra Pradesh,India,Cultural Capital Shelter,Arts,Godavari Pushkaralu Ghat,17.0005,81.8040,+91-883-2567890,cultural@rajahmundry.org,170,"Cultural preservation"
Rajahmundry,Andhra Pradesh,India,Paper Mills Shelter,Industrial,Paper Mill Colony,17.0000,81.8100,+91-883-2456789,paper@rajahmundry.org,155,"Industrial workers"
Kakinada,Andhra Pradesh,India,Port City Shelter,Maritime,Kakinada Port,16.9891,82.2475,+91-884-2567890,port@kakinada.org,160,"Port community"
Kakinada,Andhra Pradesh,India,Natural Gas Shelter,Energy,ONGC Colony,16.9600,82.2400,+91-884-2456789,gas@kakinada.org,130,"Energy sector"
Machilipatnam,Andhra Pradesh,India,French Colonial Shelter,Historical,French Colony,16.1875,81.1389,+91-867-2567890,french@machilipatnam.org,105,"Colonial heritage"
Machilipatnam,Andhra Pradesh,India,Fishing Port Shelter,Marine,Fishing Harbor,16.1800,81.1400,+91-867-2456789,fishing@machilipatnam.org,140,"Fishing industry"
Ongole,Andhra Pradesh,India,Prakasam District Shelter,Administrative,Collectorate,15.5057,80.0499,+91-859-2567890,prakasam@ongole.org,125,"Administrative support"
Ongole,Andhra Pradesh,India,Cattle Breed Shelter,Animal Husbandry,Veterinary College,15.5000,80.0500,+91-859-2456789,cattle@ongole.org,110,"Animal husbandry"
Nizamabad,Telangana,India,Turmeric Market Shelter,Agricultural,Turmeric Market,18.6725,78.0941,+91-846-2567890,turmeric@nizamabad.org,135,"Turmeric traders"
Nizamabad,Telangana,India,Rice Bowl Shelter,Farming,Agricultural College,18.6700,78.1000,+91-846-2456789,rice@nizamabad.org,150,"Rice farmers"
Karimnagar,Telangana,India,Granite City Shelter,Mining,Granite Quarries,18.4386,79.1288,+91-878-2567890,granite@karimnagar.org,145,"Granite industry"
Karimnagar,Telangana,India,Textile Hub Shelter,Manufacturing,Power Loom Area,18.4300,79.1300,+91-878-2456789,textile@karimnagar.org,165,"Textile manufacturing"
Khammam,Telangana,India,Coal Belt Shelter,Mining,Khammam Thermal,17.2473,80.1514,+91-874-2567890,coal@khammam.org,170,"Coal mining"
Khammam,Telangana,India,Handloom Shelter,Traditional,Handloom Weavers Colony,17.2400,80.1500,+91-874-2456789,handloom@khammam.org,120,"Traditional weavers"
Mahbubnagar,Telangana,India,Palamuru Shelter,Drought Prone,Collectorate Complex,16.7400,77.9974,+91-855-2567890,palamuru@mahbubnagar.org,155,"Drought relief"
Mahbubnagar,Telangana,India,Tribal Welfare Shelter,Indigenous,Tribal Welfare Office,16.7300,78.0000,+91-855-2456789,tribal@mahbubnagar.org,140,"Tribal community"
Adilabad,Telangana,India,Forest Shelter,Forestry,Forest Department,19.6618,78.5314,+91-875-2567890,forest@adilabad.org,125,"Forest dwellers"
Adilabad,Telangana,India,Cotton Farmers Shelter,Agriculture,Cotton Market,19.6600,78.5300,+91-875-2456789,cotton@adilabad.org,135,"Cotton cultivation"
Medak,Telangana,India,Rural Development Shelter,Rural,District Headquarters,18.0488,78.2750,+91-846-2567890,rural@medak.org,115,"Rural development"
Medak,Telangana,India,Integrated Tribal Shelter,Indigenous,Tribal Area Development,18.0400,78.2800,+91-846-2456789,integrated@medak.org,130,"Tribal integration"
Rangareddy,Telangana,India,IT Corridor Shelter,Technology,HITEC City,17.4065,78.4772,+91-40-23567890,it@rangareddy.org,180,"IT professionals"
Rangareddy,Telangana,India,Suburban Shelter,Urban Development,Shamshabad,17.2403,78.3984,+91-40-23456789,suburban@rangareddy.org,145,"Suburban community"
Nalgonda,Telangana,India,Historical Shelter,Heritage,Bhongir Fort,17.5200,78.8900,+91-868-2567890,historical@nalgonda.org,120,"Heritage preservation"
Nalgonda,Telangana,India,Fluoride Affected Shelter,Health,Medical College,17.0500,79.2700,+91-868-2456789,fluoride@nalgonda.org,160,"Health support"
Thiruvananthapuram,Kerala,India,Capital City Shelter,Administrative,Secretariat,8.5241,76.9366,+91-471-2567890,capital@thiruvananthapuram.org,200,"Administrative capital"
Thiruvananthapuram,Kerala,India,IT Park Shelter,Technology,Technopark,8.5506,76.8803,+91-471-2456789,techno@thiruvananthapuram.org,150,"IT sector"
Kochi,Kerala,India,Queen of Arabian Sea Shelter,Port City,Marine Drive,9.9312,76.2673,+91-484-2567890,queen@kochi.org,180,"Port community"
Kochi,Kerala,India,Spice Trade Shelter,Commercial,Mattancherry,9.9591,76.2304,+91-484-2456789,spice@kochi.org,140,"Spice traders"
Kozhikode,Kerala,India,Malabar Coast Shelter,Coastal,Kozhikode Beach,11.2588,75.7804,+91-495-2567890,malabar@kozhikode.org,160,"Coastal community"
Kozhikode,Kerala,India,Textile City Shelter,Manufacturing,Beypore,11.1700,75.8000,+91-495-2456789,textile@kozhikode.org,135,"Textile industry"
Thrissur,Kerala,India,Cultural Capital Shelter,Arts,Vadakkunnathan Temple,10.5276,76.2144,+91-487-2567890,cultural@thrissur.org,145,"Cultural center"
Thrissur,Kerala,India,Pooram Festival Shelter,Festival,Thekkinkadu Maidan,10.5200,76.2100,+91-487-2456789,pooram@thrissur.org,250,"Festival support"
Kollam,Kerala,India,Cashew Capital Shelter,Processing,Cashew Factory,8.8932,76.6141,+91-474-2567890,cashew@kollam.org,125,"Cashew processing"
Kollam,Kerala,India,Backwater Shelter,Tourism,Ashtamudi Lake,8.8800,76.6000,+91-474-2456789,backwater@kollam.org,110,"Tourism support"
Palakkad,Kerala,India,Granary of Kerala Shelter,Agricultural,Palakkad Gap,10.7867,76.6548,+91-491-2567890,granary@palakkad.org,155,"Agricultural hub"
Palakkad,Kerala,India,Railway Junction Shelter,Transportation,Palakkad Junction,10.7800,76.6500,+91-491-2456789,railway@palakkad.org,120,"Transportation hub"
Malappuram,Kerala,India,Educational Hub Shelter,Academic,University of Calicut,11.0510,76.0711,+91-483-2567890,education@malappuram.org,170,"Educational center"
Malappuram,Kerala,India,Moplah Heritage Shelter,Cultural,Tirurangadi,11.0000,75.9000,+91-483-2456789,moplah@malappuram.org,130,"Cultural heritage"
Kannur,Kerala,India,Handloom Capital Shelter,Textile,Handloom Park,11.8745,75.3704,+91-497-2567890,handloom@kannur.org,140,"Handloom industry"
Kannur,Kerala,India,Theyyam Art Shelter,Traditional Arts,Parassinikadavu,12.1000,75.4000,+91-497-2456789,theyyam@kannur.org,100,"Traditional arts"
Kasaragod,Kerala,India,Seven Languages Shelter,Linguistic,Bekal Fort,12.3895,74.9870,+91-499-2567890,languages@kasaragod.org,115,"Linguistic diversity"
Kasaragod,Kerala,India,Coir Industry Shelter,Manufacturing,Coir Factory,12.5000,75.0000,+91-499-2456789,coir@kasaragod.org,125,"Coir manufacturing"
Alappuzha,Kerala,India,Venice of East Shelter,Backwaters,Vembanad Lake,9.4981,76.3388,+91-477-2567890,venice@alappuzha.org,160,"Backwater community"
Alappuzha,Kerala,India,Coir Capital Shelter,Industry,Coir Board,9.5000,76.3300,+91-477-2456789,coir@alappuzha.org,135,"Coir industry"
Kottayam,Kerala,India,Latex Capital Shelter,Rubber,Rubber Board,9.5916,76.5222,+91-481-2567890,latex@kottayam.org,145,"Rubber industry"
Kottayam,Kerala,India,Syrian Christian Shelter,Religious,St. Mary's Church,9.5900,76.5200,+91-481-2456789,syrian@kottayam.org,120,"Religious community"
Pathanamthitta,Kerala,India,Pilgrimage Shelter,Religious,Sabarimala Base,9.2648,76.7870,+91-468-2567890,pilgrimage@pathanamthitta.org,300,"Pilgrimage support"
Pathanamthitta,Kerala,India,Spice Garden Shelter,Agriculture,Spice Plantations,9.2600,76.7800,+91-468-2456789,spice@pathanamthitta.org,110,"Spice cultivation"
Idukki,Kerala,India,Spice Capital Shelter,Agriculture,Munnar,10.0889,77.0595,+91-486-2567890,spice@idukki.org,125,"Spice plantations"
Idukki,Kerala,India,Hill Station Shelter,Tourism,Thekkady,9.5933,77.1500,+91-486-2456789,hills@idukki.org,140,"Hill tourism"
Ernakulam,Kerala,India,Commercial Capital Shelter,Business,MG Road,9.9816,76.2999,+91-484-2567890,commercial@ernakulam.org,190,"Business district"
Ernakulam,Kerala,India,Marine Products Shelter,Export,Marine Products Export,9.9700,76.2900,+91-484-2456789,marine@ernakulam.org,155,"Marine exports"
Wayanad,Kerala,India,Spice Bowl Shelter,Agriculture,Spice Gardens,11.6854,76.1320,+91-493-2567890,spice@wayanad.org,130,"Spice cultivation"
Wayanad,Kerala,India,Tribal Heritage Shelter,Indigenous,Tribal Museum,11.6800,76.1300,+91-493-2456789,tribal@wayanad.org,145,"Tribal community"
Bhubaneswar,Odisha,India,Temple City Shelter,Religious,Lingaraj Temple,20.2961,85.8245,+91-674-2567890,temple@bhubaneswar.org,200,"Temple city support"
Bhubaneswar,Odisha,India,Modern Capital Shelter,Administrative,Secretariat,20.2700,85.8400,+91-674-2456789,modern@bhubaneswar.org,180,"Administrative center"
Cuttack,Odisha,India,Silver City Shelter,Handicraft,Silver Filigree Market,20.4625,85.8828,+91-671-2567890,silver@cuttack.org,150,"Handicraft artisans"
Cuttack,Odisha,India,Commercial Hub Shelter,Business,Cantonment Road,20.4600,85.8800,+91-671-2456789,commercial@cuttack.org,135,"Business community"
Rourkela,Odisha,India,Steel City Shelter,Industrial,Steel Authority of India,22.2604,84.8536,+91-661-2567890,steel@rourkela.org,250,"Steel workers"
Rourkela,Odisha,India,Tribal Area Shelter,Indigenous,Tribal Development,22.2500,84.8500,+91-661-2456789,tribal@rourkela.org,180,"Tribal development"
Berhampur,Odisha,India,Silk City Shelter,Textile,Silk Weaving Center,19.3149,84.7941,+91-680-2567890,silk@berhampur.org,140,"Silk industry"
Berhampur,Odisha,India,South Odisha Shelter,Regional,Regional Office,19.3100,84.7900,+91-680-2456789,south@berhampur.org,125,"Regional development"
Sambalpur,Odisha,India,Handloom Capital Shelter,Textile,Sambalpuri Saree Center,21.4669,83.9812,+91-663-2567890,handloom@sambalpur.org,160,"Handloom weavers"
Sambalpur,Odisha,India,Hirakud Dam Shelter,Hydroelectric,Hirakud Dam,21.5100,83.8700,+91-663-2456789,hirakud@sambalpur.org,130,"Dam community"
Balasore,Odisha,India,Defense Testing Shelter,Military,Defense Research,21.4942,86.9336,+91-782-2567890,defense@balasore.org,145,"Defense personnel"
Balasore,Odisha,India,Coastal Belt Shelter,Maritime,Chandipur Beach,21.4500,87.0500,+91-782-2456789,coastal@balasore.org,120,"Coastal community"
Baripada,Odisha,India,Tribal District Shelter,Indigenous,Similipal Reserve,21.9347,86.7930,+91-672-2567890,tribal@baripada.org,170,"Tribal welfare"
Baripada,Odisha,India,Forest Conservation Shelter,Environmental,Forest Department,21.9300,86.7900,+91-672-2456789,forest@baripada.org,135,"Forest conservation"
Puri,Odisha,India,Jagannath Temple Shelter,Pilgrimage,Jagannath Temple,19.8135,85.8312,+91-675-2567890,jagannath@puri.org,400,"Pilgrimage support"
Puri,Odisha,India,Beach Resort Shelter,Tourism,Golden Beach,19.8000,85.8500,+91-675-2456789,beach@puri.org,200,"Tourism industry"
Angul,Odisha,India,Coal Capital Shelter,Mining,Mahanadi Coalfields,20.8406,85.1022,+91-675-2567890,coal@angul.org,185,"Coal mining"
Angul,Odisha,India,Aluminum Hub Shelter,Industrial,NALCO,20.8400,85.1000,+91-675-2456789,aluminum@angul.org,155,"Aluminum industry"
Dhenkanal,Odisha,India,Iron Ore Shelter,Mining,Iron Ore Mines,20.6593,85.5955,+91-674-2567890,iron@dhenkanal.org,140,"Iron ore mining"
Dhenkanal,Odisha,India,Handicraft Center Shelter,Arts,Handicraft Village,20.6500,85.5900,+91-674-2456789,handicraft@dhenkanal.org,115,"Handicraft artisans"
Jajpur,Odisha,India,Industrial Corridor Shelter,Manufacturing,Kalinganagar,20.8436,86.3290,+91-674-2567890,industrial@jajpur.org,220,"Industrial corridor"
Jajpur,Odisha,India,Ancient Capital Shelter,Heritage,Archaeological Site,20.8400,86.3200,+91-674-2456789,ancient@jajpur.org,100,"Heritage preservation"
Kendrapara,Odisha,India,Bhitarkanika Shelter,Wildlife,Bhitarkanika Sanctuary,20.5022,86.4133,+91-675-2567890,wildlife@kendrapara.org,125,"Wildlife conservation"
Kendrapara,Odisha,India,Coastal Aquaculture Shelter,Marine,Aquaculture Farms,20.5000,86.4100,+91-675-2456789,aqua@kendrapara.org,135,"Aquaculture industry"
Jagatsinghpur,Odisha,India,Petrochemical Hub Shelter,Chemical,Paradeep Port,20.3102,86.6945,+91-674-2567890,petro@jagatsinghpur.org,165,"Petrochemical industry"
Jagatsinghpur,Odisha,India,Port Development Shelter,Maritime,Port Area,20.3100,86.6900,+91-674-2456789,port@jagatsinghpur.org,145,"Port development"
Khordha,Odisha,India,Capital District Shelter,Administrative,Bhubaneswar,20.1896,85.8480,+91-674-2567890,capital@khordha.org,190,"Capital district"
Khordha,Odisha,India,IT Hub Shelter,Technology,Infocity,20.1800,85.8400,+91-674-2456789,it@khordha.org,160,"IT industry"
Nayagarh,Odisha,India,Hill District Shelter,Highland,Nayagarh Hills,20.1299,85.0954,+91-675-2567890,hills@nayagarh.org,120,"Hill community"
Nayagarh,Odisha,India,Handloom Cooperative Shelter,Textile,Handloom Society,20.1200,85.0900,+91-675-2456789,cooperative@nayagarh.org,110,"Handloom cooperative"
Ganjam,Odisha,India,South Coast Shelter,Coastal,Gopalpur Port,19.2649,84.9077,+91-680-2567890,coast@ganjam.org,175,"Coastal development"
Ganjam,Odisha,India,Cashew Processing Shelter,Agriculture,Cashew Factories,19.2600,84.9000,+91-680-2456789,cashew@ganjam.org,140,"Cashew processing"
Gajapati,Odisha,India,Tribal Hills Shelter,Indigenous,Paralakhemundi,18.7926,84.0919,+91-684-2567890,tribal@gajapati.org,130,"Tribal hills community"
Gajapati,Odisha,India,Spice Cultivation Shelter,Agriculture,Spice Gardens,18.7900,84.0900,+91-684-2456789,spice@gajapati.org,115,"Spice cultivation"
Rayagada,Odisha,India,Tribal Welfare Shelter,Indigenous,Tribal Hostel,19.1680,83.4158,+91-685-2567890,welfare@rayagada.org,200,"Tribal welfare"
Rayagada,Odisha,India,Bauxite Mining Shelter,Mining,Bauxite Mines,19.1600,83.4100,+91-685-2456789,bauxite@rayagada.org,155,"Bauxite mining"
Kandhamal,Odisha,India,Hill Station Shelter,Tourism,Daringbadi,20.0167,84.1167,+91-684-2567890,hills@kandhamal.org,125,"Hill station tourism"
Kandhamal,Odisha,India,Turmeric Cultivation Shelter,Agriculture,Turmeric Fields,20.0100,84.1100,+91-684-2456789,turmeric@kandhamal.org,135,"Turmeric cultivation"
Boudh,Odisha,India,Forest District Shelter,Forestry,Forest Range Office,20.8355,84.3159,+91-676-2567890,forest@boudh.org,110,"Forest conservation"
Boudh,Odisha,India,Tribal Development Shelter,Indigenous,Tribal Development,20.8300,84.3100,+91-676-2456789,development@boudh.org,125,"Tribal development"
Sonepur,Odisha,India,Cattle Fair Shelter,Agricultural,Cattle Fair Ground,20.8319,83.9108,+91-663-2567890,cattle@sonepur.org,150,"Cattle fair support"
Sonepur,Odisha,India,River Island Shelter,Riverine,Mahanadi River,20.8300,83.9100,+91-663-2456789,river@sonepur.org,120,"River island community"
Bolangir,Odisha,India,Drought Prone Shelter,Agricultural,Collectorate,20.7115,83.4731,+91-665-2567890,drought@bolangir.org,180,"Drought relief"
Bolangir,Odisha,India,Handloom Center Shelter,Textile,Handloom Park,20.7100,83.4700,+91-665-2456789,handloom@bolangir.org,140,"Handloom center"
Kalahandi,Odisha,India,Tribal District Shelter,Indigenous,Bhawanipatna,19.9073,83.1683,+91-665-2567890,tribal@kalahandi.org,195,"Tribal community"
Kalahandi,Odisha,India,Poverty Alleviation Shelter,Social,Development Office,19.9000,83.1600,+91-665-2456789,poverty@kalahandi.org,220,"Poverty alleviation"
Nabarangpur,Odisha,India,Tribal Welfare Shelter,Indigenous,Tribal Museum,19.2306,82.5479,+91-686-2567890,tribal@nabarangpur.org,175,"Tribal welfare"
Nabarangpur,Odisha,India,Forest Products Shelter,Natural Resources,Forest Department,19.2300,82.5400,+91-686-2456789,forest@nabarangpur.org,145,"Forest products"
Nuapada,Odisha,India,Border District Shelter,Interstate,Chhattisgarh Border,20.8071,82.6040,+91-675-2567890,border@nuapada.org,135,"Border community"
Nuapada,Odisha,India,Maize Cultivation Shelter,Agriculture,Agricultural College,20.8000,82.6000,+91-675-2456789,maize@nuapada.org,125,"Maize cultivation"
Koraput,Odisha,India,Coffee Plantation Shelter,Agriculture,Coffee Estates,18.8127,82.7076,+91-685-2567890,coffee@koraput.org,150,"Coffee plantation"
Koraput,Odisha,India,Tribal Heritage Shelter,Indigenous,Tribal Museum,18.8100,82.7000,+91-685-2456789,heritage@koraput.org,165,"Tribal heritage"
Malkangiri,Odisha,India,Border Security Shelter,Security,BSF Camp,18.3477,81.8840,+91-687-2567890,security@malkangiri.org,140,"Border security"
Malkangiri,Odisha,India,Tribal Development Shelter,Indigenous,ITDA Office,18.3400,81.8800,+91-687-2456789,tribal@malkangiri.org,185,"Tribal development"
Dehradun,Uttarakhand,India,Valley Capital Shelter,Administrative,Rajpur Road,30.3165,78.0322,+91-135-2567890,valley@dehradun.org,170,"Valley capital"
Dehradun,Uttarakhand,India,Education Hub Shelter,Academic,Forest Research Institute,30.3300,78.0400,+91-135-2456789,education@dehradun.org,145,"Educational institutions"
Haridwar,Uttarakhand,India,Holy City Shelter,Pilgrimage,Har Ki Pauri,29.9457,78.1642,+91-133-2567890,holy@haridwar.org,300,"Pilgrimage support"
Haridwar,Uttarakhand,India,Ganga Aarti Shelter,Spiritual,Ganga Ghat,29.9400,78.1600,+91-133-2456789,ganga@haridwar.org,250,"Spiritual community"
Rishikesh,Uttarakhand,India,Yoga Capital Shelter,Wellness,Laxman Jhula,30.0869,78.2676,+91-135-2567890,yoga@rishikesh.org,200,"Yoga practitioners"
Rishikesh,Uttarakhand,India,Adventure Tourism Shelter,Tourism,Ram Jhula,30.1000,78.3000,+91-135-2456789,adventure@rishikesh.org,160,"Adventure tourism"
Nainital,Uttarakhand,India,Lake City Shelter,Tourism,Naini Lake,29.3803,79.4636,+91-594-2567890,lake@nainital.org,120,"Lake tourism support"
Nainital,Uttarakhand,India,Hill Station Shelter,Mountain Tourism,Mall Road,29.3900,79.4600,+91-594-2456789,hills@nainital.org,95,"Hill station visitors"
Almora,Uttarakhand,India,Cultural Heritage Shelter,Heritage,Almora Bazaar,29.5971,79.6593,+91-596-2567890,cultural@almora.org,110,"Cultural preservation"
Almora,Uttarakhand,India,Handicraft Center Shelter,Arts,Handicraft Village,29.6000,79.6600,+91-596-2456789,handicraft@almora.org,85,"Handicraft artisans"
Pithoragarh,Uttarakhand,India,Border District Shelter,Border Security,Indo-Nepal Border,29.5819,80.2181,+91-596-2567890,border@pithoragarh.org,135,"Border community"
Pithoragarh,Uttarakhand,India,Himalayan Shelter,Mountain,Himalayan Range,29.5800,80.2100,+91-596-2456789,himalayan@pithoragarh.org,150,"Mountain community"
Chamoli,Uttarakhand,India,Garhwal Shelter,Himalayan,Garhwal Region,30.4000,79.3200,+91-138-2567890,garhwal@chamoli.org,125,"Garhwal community"
Chamoli,Uttarakhand,India,Disaster Relief Shelter,Emergency,Disaster Management,30.4100,79.3100,+91-138-2456789,disaster@chamoli.org,200,"Disaster relief"
Uttarkashi,Uttarakhand,India,Gangotri Shelter,Pilgrimage,Gangotri Route,30.7268,78.4354,+91-137-2567890,gangotri@uttarkashi.org,180,"Gangotri pilgrims"
Uttarkashi,Uttarakhand,India,Adventure Sports Shelter,Sports,Adventure Institute,30.7300,78.4400,+91-137-2456789,adventure@uttarkashi.org,140,"Adventure sports"
Pauri,Uttarakhand,India,Garhwal University Shelter,Academic,Srinagar Garhwal,30.2232,78.7831,+91-138-2567890,university@pauri.org,115,"University community"
Pauri,Uttarakhand,India,Hill Development Shelter,Rural,Hill Development,30.2200,78.7800,+91-138-2456789,hill@pauri.org,130,"Hill development"
Tehri,Uttarakhand,India,Dam Rehabilitation Shelter,Rehabilitation,Tehri Dam,30.3783,78.4804,+91-137-2567890,dam@tehri.org,250,"Dam affected families"
Tehri,Uttarakhand,India,Hydroelectric Shelter,Energy,Power Plant,30.3800,78.4800,+91-137-2456789,hydro@tehri.org,160,"Energy sector"
Rudraprayag,Uttarakhand,India,Kedarnath Base Shelter,Pilgrimage,Kedarnath Route,30.2849,78.9819,+91-138-2567890,kedarnath@rudraprayag.org,300,"Kedarnath pilgrims"
Rudraprayag,Uttarakhand,India,Confluence Shelter,Spiritual,River Confluence,30.2800,78.9800,+91-138-2456789,confluence@rudraprayag.org,200,"Spiritual seekers"
Bageshwar,Uttarakhand,India,Kumaon Hills Shelter,Mountain,Kumaon Region,29.8390,79.7697,+91-596-2567890,kumaon@bageshwar.org,120,"Kumaon community"
Bageshwar,Uttarakhand,India,Bagnath Temple Shelter,Religious,Bagnath Temple,29.8400,79.7700,+91-596-2456789,bagnath@bageshwar.org,105,"Temple community"
Champawat,Uttarakhand,India,Ancient Capital Shelter,Heritage,Champawat Fort,29.3357,80.0936,+91-596-2567890,ancient@champawat.org,95,"Ancient heritage"
Champawat,Uttarakhand,India,Border Tourism Shelter,Tourism,Nepal Border,29.3300,80.0900,+91-596-2456789,tourism@champawat.org,110,"Border tourism"
Udham Singh Nagar,Uttarakhand,India,Industrial Belt Shelter,Manufacturing,Rudrapur,28.9845,79.4007,+91-594-2567890,industrial@udhamsinghnagar.org,185,"Industrial workers"
Udham Singh Nagar,Uttarakhand,India,Agricultural Hub Shelter,Farming,Kichha,28.9100,79.5100,+91-594-2456789,agricultural@udhamsinghnagar.org,155,"Agricultural community"
Hardwar,Uttarakhand,India,SIDCUL Shelter,Industrial,SIDCUL Complex,29.9700,78.1500,+91-133-2567890,sidcul@hardwar.org,170,"Industrial complex"
Hardwar,Uttarakhand,India,Kumbh Mela Shelter,Festival,Kumbh Mela Ground,29.9500,78.1600,+91-133-2456789,kumbh@hardwar.org,500,"Kumbh Mela support"
Shimla,Himachal Pradesh,India,Queen of Hills Shelter,Tourism,Mall Road,31.1048,77.1734,+91-177-2567890,queen@shimla.org,150,"Hill station tourism"
Shimla,Himachal Pradesh,India,Summer Capital Shelter,Administrative,Ridge,31.1000,77.1700,+91-177-2456789,summer@shimla.org,120,"Administrative center"
Manali,Himachal Pradesh,India,Adventure Tourism Shelter,Tourism,Old Manali,32.2432,77.1892,+91-190-2567890,adventure@manali.org,180,"Adventure tourism"
Manali,Himachal Pradesh,India,Honeymoon Capital Shelter,Tourism,Solang Valley,32.3200,77.1500,+91-190-2456789,honeymoon@manali.org,140,"Tourism industry"
Dharamshala,Himachal Pradesh,India,Dalai Lama Shelter,Spiritual,McLeod Ganj,32.2190,76.3234,+91-189-2567890,dalai@dharamshala.org,200,"Tibetan refugees"
Dharamshala,Himachal Pradesh,India,Buddhist Monastery Shelter,Religious,Namgyal Monastery,32.2200,76.3200,+91-189-2456789,buddhist@dharamshala.org,160,"Buddhist community"
Kullu,Himachal Pradesh,India,Valley of Gods Shelter,Cultural,Kullu Valley,31.9474,77.1099,+91-190-2567890,valley@kullu.org,130,"Valley community"
Kullu,Himachal Pradesh,India,Apple Orchard Shelter,Agriculture,Apple Orchards,31.9500,77.1100,+91-190-2456789,apple@kullu.org,115,"Apple farmers"
Solan,Himachal Pradesh,India,Mushroom City Shelter,Agriculture,Mushroom Farms,30.9045,77.0967,+91-179-2567890,mushroom@solan.org,125,"Mushroom cultivation"
Solan,Himachal Pradesh,India,Pharmaceutical Hub Shelter,Industrial,Pharma Companies,30.9000,77.1000,+91-179-2456789,pharma@solan.org,145,"Pharmaceutical industry"
Mandi,Himachal Pradesh,India,Choti Kashi Shelter,Religious,Bhootnath Temple,31.7058,76.9319,+91-190-2567890,kashi@mandi.org,135,"Religious community"
Mandi,Himachal Pradesh,India,Hydro Power Shelter,Energy,Power Projects,31.7000,76.9300,+91-190-2456789,hydro@mandi.org,165,"Hydro power workers"
Hamirpur,Himachal Pradesh,India,Education Hub Shelter,Academic,NIT Hamirpur,31.6840,76.5180,+91-177-2567890,education@hamirpur.org,155,"Educational institutions"
Hamirpur,Himachal Pradesh,India,Rural Development Shelter,Rural,Block Development,31.6800,76.5200,+91-177-2456789,rural@hamirpur.org,110,"Rural development"
Una,Himachal Pradesh,India,Industrial Town Shelter,Manufacturing,Industrial Area,31.4685,76.2708,+91-179-2567890,industrial@una.org,140,"Industrial development"
Una,Himachal Pradesh,India,Border District Shelter,Interstate,Punjab Border,31.4700,76.2700,+91-179-2456789,border@una.org,120,"Border community"
Bilaspur,Himachal Pradesh,India,Lake District Shelter,Tourism,Gobind Sagar Lake,31.3409,76.7569,+91-178-2567890,lake@bilaspur.org,125,"Lake tourism"
Bilaspur,Himachal Pradesh,India,Cement Industry Shelter,Industrial,Cement Plants,31.3400,76.7500,+91-178-2456789,cement@bilaspur.org,150,"Cement industry"
Sirmaur,Himachal Pradesh,India,Shivalik Hills Shelter,Mountain,Shivalik Range,30.5603,77.2874,+91-179-2567890,shivalik@sirmaur.org,115,"Mountain community"
Sirmaur,Himachal Pradesh,India,Tribal Area Shelter,Indigenous,Tribal Development,30.5600,77.2800,+91-179-2456789,tribal@sirmaur.org,130,"Tribal community"
Kangra,Himachal Pradesh,India,Tea Garden Shelter,Agriculture,Palampur Tea,32.1086,76.5348,+91-189-2567890,tea@kangra.org,135,"Tea plantation"
Kangra,Himachal Pradesh,India,Fort Heritage Shelter,Historical,Kangra Fort,32.0975,76.2689,+91-189-2456789,fort@kangra.org,105,"Heritage preservation"
Chamba,Himachal Pradesh,India,Hill Station Shelter,Tourism,Chamera Lake,32.5564,76.1318,+91-189-2567890,hills@chamba.org,120,"Hill tourism"
Chamba,Himachal Pradesh,India,Handicraft Center Shelter,Arts,Chamba Rumal,32.5500,76.1300,+91-189-2456789,handicraft@chamba.org,95,"Handicraft artists"
Kinnaur,Himachal Pradesh,India,Apple Valley Shelter,Horticulture,Kinnaur Apples,31.6000,78.4000,+91-178-2567890,apple@kinnaur.org,110,"Apple cultivation"
Kinnaur,Himachal Pradesh,India,Tribal District Shelter,Indigenous,Kalpa,31.5363,78.2538,+91-178-2456789,tribal@kinnaur.org,125,"Tribal heritage"
Lahaul Spiti,Himachal Pradesh,India,Cold Desert Shelter,High Altitude,Kaza,32.2332,78.0751,+91-190-2567890,desert@lahaulspiti.org,100,"High altitude community"
Lahaul Spiti,Himachal Pradesh,India,Buddhist Culture Shelter,Religious,Key Monastery,32.3000,78.0000,+91-190-2456789,buddhist@lahaulspiti.org,115,"Buddhist culture"
Jammu,Jammu and Kashmir,India,Winter Capital Shelter,Administrative,Jammu Cantonment,32.7266,74.8570,+91-191-2567890,winter@jammu.org,200,"Winter capital"
Jammu,Jammu and Kashmir,India,Vaishno Devi Shelter,Pilgrimage,Katra,32.9916,74.9318,+91-191-2456789,vaishno@jammu.org,400,"Pilgrimage support"
Leh,Ladakh,India,Buddhist Capital Shelter,Religious,Leh Palace,34.1526,77.5771,+91-198-2567890,buddhist@leh.org,150,"Buddhist community"
Leh,Ladakh,India,High Altitude Shelter,Mountain,Khardung La,34.2700,77.6100,+91-198-2456789,altitude@leh.org,120,"High altitude support"
Kargil,Ladakh,India,Border Town Shelter,Security,LOC Area,34.5539,76.1059,+91-198-2567890,border@kargil.org,180,"Border security"
Kargil,Ladakh,India,Shia Community Shelter,Religious,Shia Mosque,34.5500,76.1000,+91-198-2456789,shia@kargil.org,140,"Shia community"
Gangtok,Sikkim,India,Himalayan Capital Shelter,Administrative,MG Marg,27.3389,88.6065,+91-359-2567890,himalayan@gangtok.org,130,"Himalayan capital"
Gangtok,Sikkim,India,Buddhist Monastery Shelter,Religious,Rumtek Monastery,27.2840,88.5580,+91-359-2456789,monastery@gangtok.org,110,"Buddhist monastery"
Namchi,Sikkim,India,Pilgrimage Center Shelter,Religious,Samdruptse Hill,27.1686,88.3639,+91-359-2567890,pilgrimage@namchi.org,125,"Pilgrimage center"
Namchi,Sikkim,India,Char Dham Shelter,Spiritual,Char Dham Complex,27.1700,88.3600,+91-359-2456789,chardham@namchi.org,145,"Spiritual complex"
Geyzing,Sikkim,India,West Sikkim Shelter,Regional,Geyzing Bazaar,27.3000,88.2500,+91-359-2567890,west@geyzing.org,105,"West Sikkim"
Geyzing,Sikkim,India,Pemayangtse Shelter,Monastery,Pemayangtse Monastery,27.3100,88.2400,+91-359-2456789,pemayangtse@geyzing.org,95,"Monastery community"
Mangan,Sikkim,India,North Sikkim Shelter,High Altitude,Mangan Town,27.5167,88.5333,+91-359-2567890,north@mangan.org,115,"North Sikkim"
Mangan,Sikkim,India,Rhododendron Shelter,Nature,Rhododendron Sanctuary,27.5200,88.5300,+91-359-2456789,rhododendron@mangan.org,100,"Nature conservation"
Imphal,Manipur,India,Jewel of India Shelter,Cultural,Kangla Fort,24.8170,93.9368,+91-385-2567890,jewel@imphal.org,160,"Cultural preservation"
Imphal,Manipur,India,Polo Ground Shelter,Sports,Mapal Kangjeibung,24.8100,93.9400,+91-385-2456789,polo@imphal.org,120,"Sports community"
Thoubal,Manipur,India,Lake District Shelter,Tourism,Loktak Lake,24.6343,93.9090,+91-387-2567890,lake@thoubal.org,135,"Lake tourism"
Thoubal,Manipur,India,Handloom Center Shelter,Textile,Handloom Industry,24.6300,93.9100,+91-387-2456789,handloom@thoubal.org,115,"Handloom weavers"
Churachandpur,Manipur,India,Hill District Shelter,Tribal,Tribal Areas,24.3333,93.6833,+91-387-2567890,hills@churachandpur.org,140,"Hill tribes"
Churachandpur,Manipur,India,Horticulture Shelter,Agriculture,Orange Orchards,24.3300,93.6800,+91-387-2456789,horticulture@churachandpur.org,125,"Horticulture farmers"
Bishnupur,Manipur,India,Archaeological Shelter,Heritage,Vishnu Temple,24.6167,93.7700,+91-387-2567890,archaeological@bishnupur.org,110,"Archaeological site"
Bishnupur,Manipur,India,Cultural Heritage Shelter,Arts,Traditional Arts,24.6100,93.7700,+91-387-2456789,cultural@bishnupur.org,100,"Cultural arts"
Kakching,Manipur,India,Sports Village Shelter,Athletics,Sports Training,24.4983,93.9810,+91-385-2567890,sports@kakching.org,130,"Sports training"
Kakching,Manipur,India,Agricultural Hub Shelter,Farming,Rice Fields,24.5000,93.9800,+91-385-2456789,agricultural@kakching.org,145,"Rice cultivation"
Jiribam,Manipur,India,Border District Shelter,Interstate,Assam Border,24.8050,93.1100,+91-387-2567890,border@jiribam.org,120,"Border community"
Jiribam,Manipur,India,River Port Shelter,Transportation,Barak River,24.8000,93.1100,+91-387-2456789,river@jiribam.org,105,"River transportation"
Aizawl,Mizoram,India,Hill Capital Shelter,Administrative,Chanmari,23.7271,92.7176,+91-389-2567890,hill@aizawl.org,150,"Hill capital"
Aizawl,Mizoram,India,Presbyterian Shelter,Religious,Presbyterian Church,23.7300,92.7200,+91-389-2456789,presbyterian@aizawl.org,125,"Presbyterian community"
Lunglei,Mizoram,India,South Mizoram Shelter,Regional,Lunglei Town,22.8875,92.7444,+91-372-2567890,south@lunglei.org,120,"South Mizoram"
Lunglei,Mizoram,India,Bamboo Craft Shelter,Handicraft,Bamboo Products,22.8900,92.7400,+91-372-2456789,bamboo@lunglei.org,100,"Bamboo crafts"
Champhai,Mizoram,India,Rice Bowl Shelter,Agriculture,Champhai Valley,23.4667,93.3167,+91-389-2567890,rice@champhai.org,135,"Rice cultivation"
Champhai,Mizoram,India,Border Trade Shelter,Commerce,Myanmar Border,23.4700,93.3200,+91-389-2456789,trade@champhai.org,115,"Border trade"
Serchhip,Mizoram,India,Central Mizoram Shelter,Regional,Serchhip Town,23.3000,92.8500,+91-383-2567890,central@serchhip.org,110,"Central Mizoram"
Serchhip,Mizoram,India,Horticulture Center Shelter,Agriculture,Fruit Orchards,23.3100,92.8400,+91-383-2456789,horticulture@serchhip.org,125,"Fruit cultivation"
Kolasib,Mizoram,India,Gateway Shelter,Transportation,NH 54,24.2167,92.6833,+91-389-2567890,gateway@kolasib.org,115,"Transportation gateway"
Kolasib,Mizoram,India,Quarry Workers Shelter,Mining,Stone Quarries,24.2200,92.6800,+91-389-2456789,quarry@kolasib.org,105,"Quarry workers"
Mamit,Mizoram,India,Western District Shelter,Regional,Mamit Town,23.9167,92.4833,+91-389-2567890,western@mamit.org,100,"Western district"
Mamit,Mizoram,India,Jhum Cultivation Shelter,Agriculture,Shifting Cultivation,23.9200,92.4800,+91-389-2456789,jhum@mamit.org,120,"Jhum farmers"
Lawngtlai,Mizoram,India,Southernmost Shelter,Regional,Lawngtlai Town,22.5167,92.9000,+91-372-2567890,south@lawngtlai.org,95,"Southernmost district"
Lawngtlai,Mizoram,India,Tribal Culture Shelter,Indigenous,Tribal Museum,22.5200,92.9100,+91-372-2456789,tribal@lawngtlai.org,110,"Tribal culture"
Siaha,Mizoram,India,Mara District Shelter,Tribal,Mara Autonomous Council,22.4833,93.0000,+91-372-2567890,mara@siaha.org,105,"Mara tribe"
Siaha,Mizoram,India,Border Security Shelter,Defense,International Border,22.4800,93.0100,+91-372-2456789,security@siaha.org,115,"Border security"
Shillong,Meghalaya,India,Scotland of East Shelter,Tourism,Police Bazaar,25.5788,91.8933,+91-364-2567890,scotland@shillong.org,180,"Hill station tourism"
Shillong,Meghalaya,India,Music Capital Shelter,Cultural,All Saints Cathedral,25.5700,91.8900,+91-364-2456789,music@shillong.org,140,"Music culture"
Tura,Meghalaya,India,Garo Hills Shelter,Tribal,Garo Hills,25.5138,90.2061,+91-365-2567890,garo@tura.org,150,"Garo tribe"
Tura,Meghalaya,India,Orange Festival Shelter,Cultural,Orange Orchards,25.5100,90.2000,+91-365-2456789,orange@tura.org,125,"Orange cultivation"
Jowai,Meghalaya,India,Coal Mining Shelter,Industrial,Coal Mines,25.4522,92.1967,+91-365-2567890,coal@jowai.org,160,"Coal mining"
Jowai,Meghalaya,India,Jaintia Hills Shelter,Tribal,Jaintia Tribe,25.4500,92.2000,+91-365-2456789,jaintia@jowai.org,135,"Jaintia community"
Nongpoh,Meghalaya,India,Ri Bhoi Shelter,Administrative,District Headquarters,25.8167,91.8833,+91-364-2567890,ribhoi@nongpoh.org,115,"Administrative center"
Nongpoh,Meghalaya,India,Pineapple Hub Shelter,Agriculture,Pineapple Farms,25.8200,91.8800,+91-364-2456789,pineapple@nongpoh.org,130,"Pineapple cultivation"
Baghmara,Meghalaya,India,South Garo Shelter,Tribal,South Garo Hills,25.1833,90.6333,+91-365-2567890,southgaro@baghmara.org,120,"South Garo Hills"
Baghmara,Meghalaya,India,Wildlife Sanctuary Shelter,Conservation,Nokrek Biosphere,25.1800,90.6300,+91-365-2456789,wildlife@baghmara.org,105,"Wildlife conservation"
Ampati,Meghalaya,India,West Garo Shelter,Regional,West Garo Hills,25.8167,90.0167,+91-365-2567890,westgaro@ampati.org,110,"West Garo Hills"
Ampati,Meghalaya,India,Border District Shelter,International,Bangladesh Border,25.8200,90.0100,+91-365-2456789,border@ampati.org,125,"Border community"
Resubelpara,Meghalaya,India,North Garo Shelter,Tribal,North Garo Hills,25.6167,90.3167,+91-365-2567890,northgaro@resubelpara.org,115,"North Garo Hills"
Resubelpara,Meghalaya,India,Handicraft Center Shelter,Arts,Traditional Crafts,25.6200,90.3100,+91-365-2456789,handicraft@resubelpara.org,100,"Traditional handicrafts"
Williamnagar,Meghalaya,India,East Garo Shelter,Regional,East Garo Hills,25.4833,90.9833,+91-365-2567890,eastgaro@williamnagar.org,105,"East Garo Hills"
Williamnagar,Meghalaya,India,Agricultural Center Shelter,Farming,Agricultural Extension,25.4800,90.9800,+91-365-2456789,agricultural@williamnagar.org,120,"Agricultural extension"
Khliehriat,Meghalaya,India,East Jaintia Shelter,Mining,Uranium Mining,25.2667,92.3167,+91-365-2567890,eastjaintia@khliehriat.org,140,"Mining community"
Khliehriat,Meghalaya,India,Cement Industry Shelter,Industrial,Cement Plants,25.2700,92.3100,+91-365-2456789,cement@khliehriat.org,155,"Cement industry"
Mawkyrwat,Meghalaya,India,South West Khasi Shelter,Tribal,Khasi Hills,25.4167,91.2833,+91-364-2567890,swkhasi@mawkyrwat.org,125,"South West Khasi"
Mawkyrwat,Meghalaya,India,Betel Nut Shelter,Agriculture,Betel Nut Gardens,25.4200,91.2800,+91-364-2456789,betelnut@mawkyrwat.org,110,"Betel nut cultivation"


Mumbai,Maharashtra,India,Apnalaya Shelter Home,Homeless Shelter,Shivaji Nagar Govandi,19.0543,72.9230,+91-22-25566708,info@apnalaya.org,150,"Food, Medical Aid, Counseling, Job Training"
Delhi,Delhi,India,Aashray Adhikar Abhiyan Shelter,Night Shelter,Yamuna Pushta Road,28.6705,77.2311,+91-11-23378451,contact@aashrayadhikar.org,200,"Accommodation, Food, Basic Healthcare"
Bangalore,Karnataka,India,Samarthanam Trust Shelter,Disabled Shelter,JP Nagar 7th Phase,12.9081,77.5831,+91-80-26608234,info@samarthanam.org,80,"Rehabilitation, Education, Skill Development"
Chennai,Tamil Nadu,India,Corporation Homeless Shelter,Government Shelter,Egmore Station Road,13.0827,80.2707,+91-44-28190456,shelter@chennaicorp.gov.in,180,"Night Stay, Food, Medical Checkup"
Hyderabad,Telangana,India,Helping Hand Foundation,Multi-purpose Shelter,Secunderabad Colony,17.4065,78.4772,+91-40-27893245,help@helpinghand.org,120,"Emergency Shelter, Counseling, Legal Aid"
Kolkata,West Bengal,India,Missionaries of Charity Shelter,Religious Shelter,Park Circus Area,22.5726,88.3639,+91-33-22875432,shelter@missionariesofcharity.org,250,"Food, Clothing, Medical Care, Spiritual Support"
Pune,Maharashtra,India,Snehalaya Rehabilitation Center,Women Shelter,Ahmednagar Road,18.5679,73.9143,+91-20-24372624,contact@snehalaya.org,90,"Women Protection, Child Care, Rehabilitation"
Ahmedabad,Gujarat,India,Manav Sadhna Shelter,Community Shelter,Sabarmati Ashram Area,23.0225,72.5714,+91-79-27540564,info@manavsadhna.org,160,"Community Kitchen, Education, Healthcare"
Jaipur,Rajasthan,India,Rajasthan Samaj Kalyan Board Shelter,Government Shelter,Civil Lines Area,26.9124,75.7873,+91-141-2743589,shelter@rajasthan.gov.in,140,"Temporary Accommodation, Food Distribution"
Surat,Gujarat,India,Surat Municipal Corporation Shelter,Municipal Shelter,Ring Road Area,21.1702,72.8311,+91-261-2424567,homeless@suratmunicipal.gov.in,110,"Night Shelter, Basic Amenities"
Lucknow,Uttar Pradesh,India,UP Homeless Mission Shelter,State Shelter,Gomti Nagar Extension,26.8467,80.9462,+91-522-2345678,mission@uphomeless.gov.in,200,"Shelter, Food, Skill Training"
Kanpur,Uttar Pradesh,India,Nagar Nigam Night Shelter,Municipal Shelter,Civil Lines,26.4499,80.3319,+91-512-2345123,shelter@kanpurnagar.gov.in,130,"Night Stay, Basic Healthcare"
Nagpur,Maharashtra,India,Matru Seva Sangh Shelter,NGO Shelter,Sitabuldi Area,21.1458,79.0882,+91-712-2345890,contact@matruseva.org,100,"Elderly Care, Food, Medical Aid"
Indore,Madhya Pradesh,India,MP Homeless Rehabilitation Center,State Shelter,Vijay Nagar,22.7196,75.8577,+91-731-2456789,shelter@mphomeless.gov.in,170,"Rehabilitation, Job Training, Healthcare"
Thane,Maharashtra,India,Thane Municipal Shelter,Municipal Shelter,Naupada Area,19.2183,72.9781,+91-22-25434567,shelter@thanecity.gov.in,85,"Emergency Shelter, Food Service"
Bhopal,Madhya Pradesh,India,Jan Seva Ashram,Religious Shelter,TT Nagar,23.2599,77.4126,+91-755-2567890,contact@jansevaashram.org,95,"Spiritual Care, Food, Basic Shelter"
Visakhapatnam,Andhra Pradesh,India,AP Social Welfare Shelter,State Shelter,MVP Colony,17.7231,83.3975,+91-891-2678901,welfare@apshelter.gov.in,125,"Family Shelter, Education, Healthcare"
Pimpri-Chinchwad,Maharashtra,India,PCMC Homeless Shelter,Municipal Shelter,Pimpri Station Road,18.6298,73.7997,+91-20-27898765,shelter@pcmcindia.gov.in,75,"Night Accommodation, Food"
Patna,Bihar,India,Bihar Homeless Mission,State Shelter,Boring Road,25.5941,85.1376,+91-612-2789012,mission@biharhomeless.gov.in,180,"Shelter, Food, Medical Care"
Vadodara,Gujarat,India,Vadodara Municipal Shelter,Municipal Shelter,Race Course Circle,22.3072,73.1812,+91-265-2890123,shelter@vmc.gov.in,105,"Night Shelter, Basic Amenities"
Agra,Uttar Pradesh,India,Agra Nagar Nigam Shelter,Municipal Shelter,Civil Lines,27.1767,78.0081,+91-562-2901234,shelter@agranagarnigam.gov.in,115,"Temporary Stay, Food Distribution"
Ludhiana,Punjab,India,Punjab Welfare Shelter,State Shelter,Civil Lines,30.9010,75.8573,+91-161-3012345,welfare@punjabshelter.gov.in,90,"Emergency Shelter, Rehabilitation"
Nashik,Maharashtra,India,Nashik Municipal Shelter,Municipal Shelter,Mumbai Naka,19.9975,73.7898,+91-253-3123456,shelter@nashikcorp.gov.in,110,"Night Stay, Healthcare"
Faridabad,Haryana,India,Haryana Homeless Initiative,State Shelter,Sector 12,28.4089,77.3178,+91-129-3234567,initiative@haryanahomeless.gov.in,95,"Family Accommodation, Job Training"
Rajkot,Gujarat,India,Rajkot Municipal Shelter,Municipal Shelter,University Road,22.3039,70.8022,+91-281-3345678,shelter@rmc.gov.in,80,"Basic Shelter, Food Service"
Meerut,Uttar Pradesh,India,Meerut Nagar Nigam Shelter,Municipal Shelter,Civil Lines,28.9845,77.7064,+91-121-3456789,shelter@merutnagar.gov.in,120,"Night Accommodation, Medical Aid"
Varanasi,Uttar Pradesh,India,Varanasi Municipal Shelter,Municipal Shelter,Cantonment Area,25.3176,82.9739,+91-542-3567890,shelter@varanasicity.gov.in,140,"Pilgrimage Shelter, Food, Healthcare"
Srinagar,Jammu and Kashmir,India,JK Homeless Welfare,State Shelter,Lal Chowk Area,34.0837,74.7973,+91-194-3678901,welfare@jkhomeless.gov.in,100,"Winter Shelter, Warm Clothing, Food"
Aurangabad,Maharashtra,India,Aurangabad Municipal Shelter,Municipal Shelter,CIDCO Area,19.8762,75.3433,+91-240-3789012,shelter@amcaurangabad.gov.in,85,"Night Stay, Basic Amenities"
Dhanbad,Jharkhand,India,Jharkhand Social Welfare Shelter,State Shelter,Bank More,23.7957,86.4304,+91-326-3890123,welfare@jharkhanshelter.gov.in,70,"Mining Worker Shelter, Healthcare"
Amritsar,Punjab,India,Golden Temple Langar Shelter,Religious Shelter,Golden Temple Complex,31.6340,74.8723,+91-183-3901234,langar@goldentempleshelter.org,300,"Free Food, Accommodation, Religious Services"
Allahabad,Uttar Pradesh,India,Prayagraj Municipal Shelter,Municipal Shelter,Civil Lines,25.4358,81.8463,+91-532-4012345,shelter@prayagrajcorp.gov.in,160,"Kumbh Shelter, Temporary Stay"
Howrah,West Bengal,India,Howrah Municipal Shelter,Municipal Shelter,Station Area,22.5958,88.2636,+91-33-4123456,shelter@howrahcorp.gov.in,90,"Railway Shelter, Food Distribution"
Ranchi,Jharkhand,India,Ranchi Municipal Shelter,Municipal Shelter,Main Road,23.3441,85.3096,+91-651-4234567,shelter@ranchimunicipal.gov.in,75,"Tribal Welfare Shelter, Healthcare"
Jabalpur,Madhya Pradesh,India,MP Tribal Welfare Shelter,State Shelter,Civil Lines,23.1815,79.9864,+91-761-4345678,tribal@mpshelter.gov.in,110,"Tribal Community Shelter, Education"
Coimbatore,Tamil Nadu,India,TN Municipal Shelter,Municipal Shelter,RS Puram,11.0168,76.9558,+91-422-4456789,shelter@coimbatorecorp.gov.in,95,"Industrial Worker Shelter, Skills Training"
Jodhpur,Rajasthan,India,Rajasthan Desert Shelter,State Shelter,Pal Road,26.2389,73.0243,+91-291-4567890,desert@rajasthanshelter.gov.in,105,"Desert Area Shelter, Water Facility"
Madurai,Tamil Nadu,India,Madurai Corporation Shelter,Municipal Shelter,Periyar Bus Stand,9.9252,78.1198,+91-452-4678901,shelter@maduraicorp.gov.in,130,"Temple City Shelter, Food Service"
Raipur,Madhya Pradesh,India,Chhattisgarh Homeless Mission,State Shelter,Civil Lines,21.2514,81.6296,+91-771-4789012,mission@chhomeless.gov.in,115,"State Capital Shelter, Rehabilitation"
Kota,Rajasthan,India,Kota Student Shelter,Educational Shelter,Vigyan Nagar,25.2138,75.8648,+91-744-4890123,student@kotashelter.org,200,"Student Accommodation, Educational Support"
Chandigarh,Chandigarh,India,UT Homeless Shelter,Union Territory Shelter,Sector 17,30.7333,76.7794,+91-172-4901234,shelter@chandigarhut.gov.in,120,"Modern Shelter Facility, Healthcare"
Guwahati,Assam,India,Assam Tribal Welfare Shelter,State Shelter,Fancy Bazaar,26.1445,91.7362,+91-361-5012345,tribal@assamwelfare.gov.in,85,"Northeast Tribal Shelter, Cultural Programs"
Salem,Tamil Nadu,India,Salem Corporation Shelter,Municipal Shelter,Junction Area,11.6643,78.1460,+91-427-5123456,shelter@salemcorp.gov.in,80,"Industrial City Shelter, Job Training"
Thiruvananthapuram,Kerala,India,Kerala State Shelter,State Shelter,Thampanoor,8.5241,76.9366,+91-471-5234567,shelter@keralastate.gov.in,100,"Coastal Shelter, Fishermen Support"
Bhubaneswar,Odisha,India,Odisha Capital Shelter,State Shelter,Master Canteen,20.2961,85.8245,+91-674-5345678,capital@odishashelter.gov.in,110,"Government Shelter, Administrative Support"
Mysore,Karnataka,India,Mysore Palace City Shelter,Municipal Shelter,KR Circle,12.2958,76.6394,+91-821-5456789,shelter@mysorecity.gov.in,90,"Heritage City Shelter, Tourism Support"
Bareilly,Uttar Pradesh,India,UP Rural Shelter,State Shelter,Civil Lines,28.3670,79.4304,+91-581-5567890,rural@upshelter.gov.in,125,"Rural Migration Shelter, Skills Training"
Aligarh,Uttar Pradesh,India,Aligarh Municipal Shelter,Municipal Shelter,University Area,27.8974,78.0880,+91-571-5678901,shelter@aligarhcorp.gov.in,105,"Educational City Shelter, Student Support"
Moradabad,Uttar Pradesh,India,UP Handicraft Shelter,State Shelter,Civil Lines,28.8386,78.7733,+91-591-5789012,handicraft@upshelter.gov.in,85,"Artisan Shelter, Craft Training"
Jalandhar,Punjab,India,Punjab Sports City Shelter,State Shelter,Model Town,31.3260,75.5762,+91-181-5890123,sports@punjabshelter.gov.in,95,"Sports Person Shelter, Training Facilities"
Tiruchirappalli,Tamil Nadu,India,Trichy Corporation Shelter,Municipal Shelter,Junction Area,10.7905,78.7047,+91-431-5901234,shelter@trichycorp.gov.in,115,"Central Tamil Nadu Shelter, Transport Hub"
Bikaneer,Rajasthan,India,Rajasthan Camel Shelter,Specialized Shelter,Kote Gate,28.0229,73.3119,+91-151-6012345,camel@rajasthanshelter.gov.in,60,"Desert Community Shelter, Animal Care"
Saharanpur,Uttar Pradesh,India,UP Furniture Hub Shelter,State Shelter,Court Road,29.9680,77.5552,+91-132-6123456,furniture@upshelter.gov.in,90,"Furniture Worker Shelter, Trade Training"
Gorakhpur,Uttar Pradesh,India,UP Eastern Shelter,State Shelter,Civil Lines,26.7606,83.3732,+91-551-6234567,eastern@upshelter.gov.in,140,"Eastern UP Shelter, Agricultural Support"
Bikaner,Rajasthan,India,Desert Heritage Shelter,Cultural Shelter,Old City,28.0229,73.3119,+91-151-6345678,heritage@rajasthanshelter.gov.in,75,"Cultural Heritage Shelter, Arts Training"
Ujjain,Madhya Pradesh,India,MP Religious Shelter,Religious Shelter,Mahakaleshwar Area,23.1765,75.7885,+91-734-6456789,religious@mpshelter.gov.in,180,"Pilgrimage Shelter, Religious Services"
Jamnagar,Gujarat,India,Gujarat Coastal Shelter,State Shelter,Bedi Bunder,22.4707,70.0577,+91-288-6567890,coastal@gujaratshelter.gov.in,70,"Coastal Community Shelter, Marine Support"
Bhilai,Chhattisgarh,India,Chhattisgarh Steel Shelter,Industrial Shelter,Steel Plant Area,21.1938,81.3509,+91-788-6678901,steel@chhattisgarshshelter.gov.in,130,"Steel Worker Shelter, Industrial Training"
Cuttak,Odisha,India,Odisha Silver City Shelter,State Shelter,Buxi Bazaar,20.4625,85.8828,+91-671-6789012,silver@odishashelter.gov.in,95,"Heritage Shelter, Craft Training"
Firozabad,Uttar Pradesh,India,UP Glass City Shelter,Industrial Shelter,Tundla Road,27.1592,78.3957,+91-561-6890123,glass@upshelter.gov.in,80,"Glass Worker Shelter, Industrial Training"
Kochi,Kerala,India,Kerala Port City Shelter,State Shelter,Marine Drive,9.9312,76.2673,+91-484-6901234,port@keralastate.gov.in,110,"Port Worker Shelter, Marine Training"
Bhavnagar,Gujarat,India,Gujarat Ship Building Shelter,Industrial Shelter,Alang Road,21.7645,72.1519,+91-278-7012345,shipbuilding@gujaratshelter.gov.in,85,"Shipyard Worker Shelter, Technical Training"
Dehradun,Uttarakhand,India,Uttarakhand Hill Station Shelter,State Shelter,Clock Tower,30.3165,78.0322,+91-135-7123456,hill@uttarakhanshelter.gov.in,100,"Mountain Community Shelter, Tourism Support"
Durgapur,West Bengal,India,WB Steel City Shelter,State Shelter,City Center,23.5204,87.3119,+91-343-7234567,steel@wbshelter.gov.in,90,"Industrial Shelter, Steel Worker Support"
Asansol,West Bengal,India,WB Coal Belt Shelter,State Shelter,GT Road,23.6739,86.9524,+91-341-7345678,coal@wbshelter.gov.in,105,"Coal Mining Shelter, Miner Support"
Kolhapur,Maharashtra,India,Maharashtra Sugar Belt Shelter,State Shelter,Station Road,16.7050,74.2433,+91-231-7456789,sugar@maharashtrashelter.gov.in,95,"Sugar Industry Shelter, Agricultural Support"
Ajmer,Rajasthan,India,Rajasthan Sufi Shelter,Religious Shelter,Dargah Road,26.4499,74.6399,+91-145-7567890,sufi@rajasthanshelter.gov.in,150,"Religious Pilgrimage Shelter, Spiritual Care"
Akola,Maharashtra,India,Maharashtra Cotton Shelter,Agricultural Shelter,Cotton Market,20.7002,77.0082,+91-724-7678901,cotton@maharashtrashelter.gov.in,75,"Cotton Farmer Shelter, Agricultural Training"
Gulbarga,Karnataka,India,Karnataka North Shelter,State Shelter,Station Road,17.3297,76.8343,+91-8472-7789012,north@karnatakastate.gov.in,110,"North Karnataka Shelter, Rural Development"
Jamshedpur,Jharkhand,India,Jharkhand Steel City Shelter,Industrial Shelter,Bistupur,22.8046,86.2029,+91-657-7890123,steelcity@jharkhanshelter.gov.in,140,"Steel City Shelter, Industrial Worker Support"
Ujjain,Madhya Pradesh,India,MP Kumbh Mela Shelter,Event Shelter,Triveni Area,23.1765,75.7885,+91-734-7901234,kumbh@mpshelter.gov.in,250,"Festival Shelter, Mass Accommodation"
Belgaum,Karnataka,India,Karnataka Border Shelter,State Shelter,Camp Area,15.8497,74.4977,+91-831-8012345,border@karnatakastate.gov.in,85,"Border Area Shelter, Inter-state Support"
Siliguri,West Bengal,India,WB Himalayan Foothills Shelter,State Shelter,Hill Cart Road,26.7271,88.3953,+91-353-8123456,himalayan@wbshelter.gov.in,90,"Foothill Community Shelter, Tea Garden Support"
Avadi,Tamil Nadu,India,TN Defense Shelter,Specialized Shelter,Defence Colony,13.1067,80.0975,+91-44-8234567,defence@tnshelter.gov.in,70,"Defense Personnel Family Shelter"
Rajpur Sonarpur,West Bengal,India,WB Suburban Shelter,Municipal Shelter,Sonarpur Station,22.4617,88.4314,+91-33-8345678,suburban@wbshelter.gov.in,60,"Suburban Community Shelter, Rail Commuter Support"
Vasai-Virar,Maharashtra,India,Maharashtra Suburban Shelter,Municipal Shelter,Vasai Road,19.4412,72.8397,+91-250-8456789,vasai@maharashtrashelter.gov.in,120,"Mumbai Suburban Shelter, Commuter Support"
Amravati,Maharashtra,India,Maharashtra Orange City Shelter,State Shelter,Cotton Market,20.9374,77.7796,+91-721-8567890,orange@maharashtrashelter.gov.in,100,"Orange Belt Shelter, Agricultural Support"
Nanded,Maharashtra,India,Maharashtra Sikh Shelter,Religious Shelter,Gurudwara Road,19.1383,77.2975,+91-2462-8678901,sikh@maharashtrashelter.gov.in,130,"Sikh Pilgrimage Shelter, Religious Services"
Kolkata,West Bengal,India,Mother Teresa Shelter,Charitable Shelter,Park Street Area,22.5626,88.3565,+91-33-8789012,motherteresa@kolkatashelter.org,200,"Charitable Care, Medical Support, Food Service"
Davangere,Karnataka,India,Karnataka Cotton Hub Shelter,Agricultural Shelter,PB Road,14.4644,75.9220,+91-8192-8890123,cottonhub@karnatakastate.gov.in,80,"Cotton Hub Shelter, Agricultural Training"
Kozhikode,Kerala,India,Kerala Spice Coast Shelter,State Shelter,Beach Road,11.2588,75.7804,+91-495-8901234,spice@keralastate.gov.in,95,"Spice Trade Shelter, Maritime Support"
Kurnool,Andhra Pradesh,India,AP Rayalaseema Shelter,State Shelter,Station Road,15.8281,78.0373,+91-8518-9012345,rayalaseema@apshelter.gov.in,105,"Rayalaseema Region Shelter, Drought Relief"
Bokaro,Jharkhand,India,Jharkhand Steel Town Shelter,Industrial Shelter,Sector 4,23.6693,85.9556,+91-6542-9123456,steeltown@jharkhanshelter.gov.in,115,"Steel Township Shelter, Planned City Support"
South Dumdum,West Bengal,India,WB Industrial Shelter,Municipal Shelter,Jessore Road,22.6133,88.3967,+91-33-9234567,industrial@wbshelter.gov.in,70,"Industrial Area Shelter, Factory Worker Support"
Bellary,Karnataka,India,Karnataka Mining Shelter,Industrial Shelter,Gandhi Nagar,15.1394,76.9214,+91-8392-9345678,mining@karnatakastate.gov.in,90,"Mining Community Shelter, Rehabilitation"
Parbhani,Maharashtra,India,Maharashtra Marathwada Shelter,State Shelter,Station Road,19.2608,76.7734,+91-2452-9456789,marathwada@maharashtrashelter.gov.in,85,"Marathwada Region Shelter, Drought Support"
Tumkur,Karnataka,India,Karnataka Education Hub Shelter,Educational Shelter,University Road,13.3379,77.1022,+91-816-9567890,education@karnatakastate.gov.in,100,"Education Hub Shelter, Student Accommodation"
Khammam,Telangana,India,Telangana Coal Belt Shelter,Industrial Shelter,Wyra Road,17.2473,80.1514,+91-8742-9678901,coalBelt@telanganastate.gov.in,95,"Coal Mining Shelter, Tribal Support"
Ozhukarai,Puducherry,India,Puducherry UT Shelter,Union Territory Shelter,ECR Road,11.9416,79.7865,+91-413-9789012,shelter@puducherry.gov.in,65,"Union Territory Shelter, Coastal Community"
Bihar Sharif,Bihar,India,Bihar Heritage Shelter,State Shelter,Nalanda Road,25.2073,85.5239,+91-6112-9890123,heritage@biharshelter.gov.in,110,"Heritage Site Shelter, Educational Tourism"
Panipat,Haryana,India,Haryana Textile Shelter,Industrial Shelter,GT Road,29.3909,76.9635,+91-180-9901234,textile@haryanashelter.gov.in,100,"Textile Hub Shelter, Handloom Support"
Darbhanga,Bihar,India,Bihar Mithila Shelter,Cultural Shelter,Station Road,26.1542,85.8918,+91-6272-0012345,mithila@biharshelter.gov.in,120,"Mithila Culture Shelter, Art Training"
Bally,West Bengal,India,WB Jute Mill Shelter,Industrial Shelter,GT Road,22.6522,88.3383,+91-33-0123456,jute@wbshelter.gov.in,80,"Jute Industry Shelter, Mill Worker Support"
Ambarnath,Maharashtra,India,Maharashtra MIDC Shelter,Industrial Shelter,MIDC Area,19.1941,73.1956,+91-251-0234567,midc@maharashtrashelter.gov.in,75,"Industrial Estate Shelter, Chemical Worker Support"
Muzaffarnagar,Uttar Pradesh,India,UP Sugar Belt Shelter,Industrial Shelter,Delhi Road,29.4727,77.7085,+91-131-0345678,sugarbelt@upshelter.gov.in,105,"Sugar Industry Shelter, Agricultural Processing"
Bhatpara,West Bengal,India,WB Paper Mill Shelter,Industrial Shelter,Jagaddal Road,22.6739,88.4023,+91-33-0456789,papermill@wbshelter.gov.in,70,"Paper Industry Shelter, Mill Worker Support"
Panvel,Maharashtra,India,Maharashtra CIDCO Shelter,Planned City Shelter,CIDCO Complex,19.0144,73.1175,+91-22-0567890,cidco@maharashtrashelter.gov.in,110,"Planned City Shelter, New Mumbai Support"
Karnal,Haryana,India,Haryana Rice Bowl Shelter,Agricultural Shelter,GT Road,29.6857,76.9905,+91-184-0678901,ricebowl@haryanashelter.gov.in,95,"Rice Belt Shelter, Agricultural Training"
Kishanganj,Bihar,India,Bihar Border Shelter,State Shelter,Station Road,26.1124,87.9486,+91-6424-0789012,border@biharshelter.gov.in,85,"Border Area Shelter, Cross-border Support"
Kadapa,Andhra Pradesh,India,AP Cuddapah Shelter,State Shelter,Bypass Road,14.4426,78.8242,+91-8562-0890123,cuddapah@apshelter.gov.in,100,"District Shelter, Administrative Support"
Ramagundam,Telangana,India,Telangana Coal Town Shelter,Industrial Shelter,NTPC Colony,18.4548,79.4738,+91-8734-0901234,coaltown@telanganastate.gov.in,90,"Coal Township Shelter, Power Plant Worker Support"
Jalgaon,Maharashtra,India,Maharashtra Banana Belt Shelter,Agricultural Shelter,Station Road,21.0077,75.5626,+91-257-1012345,banana@maharashtrashelter.gov.in,105,"Banana Belt Shelter, Fruit Processing Training"
Ambattur,Tamil Nadu,India,TN Industrial Shelter,Municipal Shelter,Industrial Estate,13.1143,80.1548,+91-44-1123456,industrial@tnshelter.gov.in,85,"Industrial Township Shelter, Manufacturing Support"
Bharatpur,Rajasthan,India,Rajasthan Bird Sanctuary Shelter,Eco Shelter,Keoladeo Road,27.2152,77.4919,+91-5644-1234567,bird@rajasthanshelter.gov.in,70,"Eco-tourism Shelter, Wildlife Conservation"
Begusarai,Bihar,India,Bihar Fertilizer Town Shelter,Industrial Shelter,Fertilizer Township,25.4180,86.1233,+91-6243-1345678,fertilizer@biharshelter.gov.in,95,"Fertilizer Plant Shelter, Chemical Worker Support"
New Delhi,Delhi,India,Capital City Night Shelter,Government Shelter,ISBT Kashmere Gate,28.6667,77.2167,+91-11-1456789,capital@delhishelter.gov.in,300,"Capital City Shelter, Transit Support, Government Services"
Hapur,Uttar Pradesh,India,UP Paper Mill Shelter,Industrial Shelter,Delhi Road,28.7294,77.7690,+91-122-1567890,papermill@upshelter.gov.in,80,"Paper Industry Shelter, Mill Worker Accommodation"
Purnia,Bihar,India,Bihar Koshi Shelter,State Shelter,Line Bazaar,25.7771,87.4753,+91-6454-1678901,koshi@biharshelter.gov.in,110,"River Valley Shelter, Flood Relief Support"
Satna,Madhya Pradesh,India,MP Cement City Shelter,Industrial Shelter,Rewa Road,24.5667,80.8333,+91-7672-1789012,cement@mpshelter.gov.in,90,"Cement Industry Shelter, Limestone Mining Support"
Mau,Uttar Pradesh,India,UP Poweroom Shelter,Industrial Shelter,Azamgarh Road,25.9417,83.5611,+91-547-1890123,poweroom@upshelter.gov.in,85,"Textile Weaving Shelter, Powerloom Training"
Cochin,Kerala,India,Kerala Naval Shelter,Defense Shelter,Naval Base,9.9312,76.2673,+91-484-1901234,naval@keralastate.gov.in,120,"Naval Personnel Shelter, Defense Family Support"
Tirunelveli,Tamil Nadu,India,TN Southern Shelter,State Shelter,Junction Area,8.7139,77.7567,+91-462-2012345,southern@tnshelter.gov.in,100,"South Tamil Nadu Shelter, Agricultural Support"
Sasaram,Bihar,India,Bihar Sher Shah Shelter,Heritage Shelter,GT Road,24.9530,84.0168,+91-6184-2123456,shershah@biharshelter.gov.in,90,"Historical Shelter, Heritage Tourism"
Erode,Tamil Nadu,India,TN Textile Hub Shelter,Industrial Shelter,Perundurai Road,11.3410,77.7172,+91-424-2234567,textilehub@tnshelter.gov.in,105,"Textile Manufacturing Shelter, Handloom Support"
Batala,Punjab,India,Punjab Sports Goods Shelter,Industrial Shelter,GT Road,31.8187,75.2061,+91-1871-2345678

Ding,Haryana,India,Haryana Border Village Shelter,Village Shelter,Punjab Border,29.5833,75.0833,+91-1696-0012345,bordervillage@haryanashelter.gov.in,45,"Border Village Shelter, Rural Border Community"
Shimla,Himachal Pradesh,India,HP Hill Station Shelter,Mountain Shelter,Mall Road,31.1048,77.1734,+91-177-0123456,hill@hpshelter.gov.in,120,"Hill Station Shelter, Tourist and Local Support"
Manali,Himachal Pradesh,India,HP Tourist Shelter,Tourism Shelter,Old Manali Road,32.2396,77.1887,+91-1902-0234567,tourist@hpshelter.gov.in,150,"Tourist Shelter, Adventure Tourism Support"
Dharamshala,Himachal Pradesh,India,HP Tibetan Refugee Shelter,Refugee Shelter,McLeod Ganj,32.2190,76.3234,+91-1892-0345678,tibetan@hpshelter.gov.in,200,"Tibetan Refugee Shelter, Cultural Preservation"
Kullu,Himachal Pradesh,India,HP Valley Shelter,Valley Shelter,Akhara Bazaar,31.9578,77.1097,+91-1902-0456789,valley@hpshelter.gov.in,100,"Valley Community Shelter, Apple Orchard Workers"
Mandi,Himachal Pradesh,India,HP River Town Shelter,Riverside Shelter,Beas River Bank,31.7076,76.9318,+91-1905-0567890,rivertown@hpshelter.gov.in,90,"River Town Shelter, Hydroelectric Workers"
Solan,Himachal Pradesh,India,HP Industrial Shelter,Industrial Shelter,Parwanoo Road,30.9045,77.0967,+91-1792-0678901,industrial@hpshelter.gov.in,85,"Industrial Shelter, Pharmaceutical Industry"
Hamirpur,Himachal Pradesh,India,HP District Shelter,Administrative Shelter,Court Road,31.6884,76.5246,+91-1972-0789012,district@hpshelter.gov.in,80,"District Administrative Shelter, Government Services"
Una,Himachal Pradesh,India,HP Border District Shelter,Border Shelter,Punjab Border,31.4685,76.2708,+91-1975-0890123,borderdistrict@hpshelter.gov.in,75,"Border District Shelter, Cross-state Support"
Bilaspur,Himachal Pradesh,India,HP Dam Area Shelter,Infrastructure Shelter,Govind Sagar,31.3307,76.7540,+91-1978-0901234,dam@hpshelter.gov.in,70,"Dam Area Shelter, Hydroelectric Support"
Chamba,Himachal Pradesh,India,HP Heritage Valley Shelter,Heritage Shelter,Chaugan Area,32.5563,76.1319,+91-1899-1012345,heritage@hpshelter.gov.in,95,"Heritage Valley Shelter, Traditional Crafts"
Kangra,Himachal Pradesh,India,HP Tea Garden Shelter,Agricultural Shelter,Tea Estates,32.0998,76.2691,+91-1892-1123456,teagarden@hpshelter.gov.in,110,"Tea Garden Shelter, Tea Worker Support"
Palampur,Himachal Pradesh,India,HP Tea Capital Shelter,Agricultural Shelter,Tea Gardens,32.1084,76.5319,+91-1894-1234567,teacapital@hpshelter.gov.in,85,"Tea Capital Shelter, Agricultural Tourism"
Dalhousie,Himachal Pradesh,India,HP Hill Resort Shelter,Resort Shelter,Gandhi Chowk,32.5448,75.9702,+91-1899-1345678,resort@hpshelter.gov.in,100,"Hill Resort Shelter, Tourism Industry"
Kasauli,Himachal Pradesh,India,HP Cantonment Shelter,Military Shelter,Cantonment Area,30.8980,76.9648,+91-1792-1456789,cantonment@hpshelter.gov.in,65,"Cantonment Shelter, Military Family Support"
Nahan,Himachal Pradesh,India,HP District Capital Shelter,Administrative Shelter,Trilokpur Road,30.5597,77.2954,+91-1783-1567890,capital@hpshelter.gov.in,70,"District Capital Shelter, Administrative Support"
Kinnaur,Himachal Pradesh,India,HP Tribal District Shelter,Tribal Shelter,Reckong Peo,31.5500,78.4000,+91-1786-1678901,tribal@hpshelter.gov.in,60,"Tribal District Shelter, Indigenous Community"
Lahaul Spiti,Himachal Pradesh,India,HP Cold Desert Shelter,Desert Shelter,Keylong,32.5667,77.0333,+91-1900-1789012,colddesert@hpshelter.gov.in,50,"Cold Desert Shelter, High Altitude Support"
Keylong,Himachal Pradesh,India,HP High Altitude Shelter,Mountain Shelter,Main Bazaar,32.5667,77.0333,+91-1900-1890123,highaltitude@hpshelter.gov.in,45,"High Altitude Shelter, Mountain Community"
Rampur,Himachal Pradesh,India,HP Trade Hub Shelter,Trade Shelter,National Highway,31.4550,77.6330,+91-1783-1901234,tradehub@hpshelter.gov.in,80,"Trade Hub Shelter, Border Commerce"
Rohru,Himachal Pradesh,India,HP Apple Belt Shelter,Agricultural Shelter,Apple Orchards,31.2056,77.7500,+91-1783-2012345,apple@hpshelter.gov.in,70,"Apple Belt Shelter, Fruit Grower Support"
Theog,Himachal Pradesh,India,HP Potato Belt Shelter,Agricultural Shelter,Potato Fields,31.1167,77.3667,+91-177-2123456,potato@hpshelter.gov.in,65,"Potato Belt Shelter, Vegetable Farming"
Arki,Himachal Pradesh,India,HP Heritage Palace Shelter,Heritage Shelter,Palace Complex,31.1500,76.9667,+91-1795-2234567,palace@hpshelter.gov.in,55,"Heritage Palace Shelter, Royal Tourism"
Sundernagar,Himachal Pradesh,India,HP Lake City Shelter,Lake Shelter,Sukhdev Sagar,31.5300,76.9000,+91-1905-2345678,lake@hpshelter.gov.in,75,"Lake City Shelter, Water Tourism"
Jogindernagar,Himachal Pradesh,India,HP Industrial Town Shelter,Industrial Shelter,Shanan Power House,31.9833,76.7833,+91-1905-2456789,industrialtown@hpshelter.gov.in,60,"Industrial Town Shelter, Power Generation"
Nurpur,Himachal Pradesh,India,HP Heritage Fort Shelter,Heritage Shelter,Fort Complex,32.2833,75.9000,+91-1893-2567890,fort@hpshelter.gov.in,50,"Heritage Fort Shelter, Historical Tourism"
Baijnath,Himachal Pradesh,India,HP Temple Town Shelter,Religious Shelter,Shiva Temple,32.0500,76.6500,+91-1894-2678901,temple@hpshelter.gov.in,85,"Temple Town Shelter, Religious Tourism"
Jwalamukhi,Himachal Pradesh,India,HP Pilgrimage Shelter,Religious Shelter,Devi Temple,31.9000,76.3167,+91-1970-2789012,pilgrimage@hpshelter.gov.in,90,"Pilgrimage Shelter, Religious Services"
Yol,Himachal Pradesh,India,HP Cantonment Shelter,Military Shelter,Military Base,32.1667,76.2000,+91-1895-2890123,yol@hpshelter.gov.in,70,"Cantonment Shelter, Defense Personnel"
Paonta Sahib,Himachal Pradesh,India,HP Industrial Valley Shelter,Industrial Shelter,Industrial Area,30.4397,77.6186,+91-1704-2901234,industrial@hpshelter.gov.in,95,"Industrial Valley Shelter, Manufacturing Hub"
Nalagarh,Himachal Pradesh,India,HP Heritage Industrial Shelter,Heritage Shelter,Fort Road,30.9333,76.7000,+91-1795-3012345,heritageindustrial@hpshelter.gov.in,60,"Heritage Industrial Shelter, Fort Tourism"
Baddi,Himachal Pradesh,India,HP Pharma Hub Shelter,Industrial Shelter,Industrial Estate,30.9580,76.7914,+91-1795-3123456,pharma@hpshelter.gov.in,120,"Pharma Hub Shelter, Pharmaceutical Industry"
Parwanoo,Himachal Pradesh,India,HP Industrial Township Shelter,Industrial Shelter,Industrial Area,30.8472,76.9725,+91-1792-3234567,township@hpshelter.gov.in,100,"Industrial Township Shelter, Cable Car Tourism"
Kala Amb,Himachal Pradesh,India,HP Border Industrial Shelter,Industrial Shelter,Haryana Border,30.6667,city,state,country,ngo_shelter_name,shelter_type,address,latitude,longitude,phone,email,capacity,services_offered
Mumbai,Maharashtra,India,Apnalaya Shelter Home,Homeless Shelter,Shivaji Nagar Govandi,19.0543,72.9230,+91-22-25566708,info@apnalaya.org,150,"Food, Medical Aid, Counseling, Job Training"
Delhi,Delhi,India,Aashray Adhikar Abhiyan Shelter,Night Shelter,Yamuna Pushta Road,28.6705,77.2311,+91-11-23378451,contact@aashrayadhikar.org,200,"Accommodation, Food, Basic Healthcare"
Bangalore,Karnataka,India,Samarthanam Trust Shelter,Disabled Shelter,JP Nagar 7th Phase,12.9081,77.5831,+91-80-26608234,info@samarthanam.org,80,"Rehabilitation, Education, Skill Development"
Chennai,Tamil Nadu,India,Corporation Homeless Shelter,Government Shelter,Egmore Station Road,13.0827,80.2707,+91-44-28190456,shelter@chennaicorp.gov.in,180,"Night Stay, Food, Medical Checkup"
Hyderabad,Telangana,India,Helping Hand Foundation,Multi-purpose Shelter,Secunderabad Colony,17.4065,78.4772,+91-40-27893245,help@helpinghand.org,120,"Emergency Shelter, Counseling, Legal Aid"
Kolkata,West Bengal,India,Missionaries of Charity Shelter,Religious Shelter,Park Circus Area,22.5726,88.3639,+91-33-22875432,shelter@missionariesofcharity.org,250,"Food, Clothing, Medical Care, Spiritual Support"
Pune,Maharashtra,India,Snehalaya Rehabilitation Center,Women Shelter,Ahmednagar Road,18.5679,73.9143,+91-20-24372624,contact@snehalaya.org,90,"Women Protection, Child Care, Rehabilitation"
Ahmedabad,Gujarat,India,Manav Sadhna Shelter,Community Shelter,Sabarmati Ashram Area,23.0225,72.5714,+91-79-27540564,info@manavsadhna.org,160,"Community Kitchen, Education, Healthcare"
Jaipur,Rajasthan,India,Rajasthan Samaj Kalyan Board Shelter,Government Shelter,Civil Lines Area,26.9124,75.7873,+91-141-2743589,shelter@rajasthan.gov.in,140,"Temporary Accommodation, Food Distribution"
Surat,Gujarat,India,Surat Municipal Corporation Shelter,Municipal Shelter,Ring Road Area,21.1702,72.8311,+91-261-2424567,homeless@suratmunicipal.gov.in,110,"Night Shelter, Basic Amenities"
Lucknow,Uttar Pradesh,India,UP Homeless Mission Shelter,State Shelter,Gomti Nagar Extension,26.8467,80.9462,+91-522-2345678,mission@uphomeless.gov.in,200,"Shelter, Food, Skill Training"
Kanpur,Uttar Pradesh,India,Nagar Nigam Night Shelter,Municipal Shelter,Civil Lines,26.4499,80.3319,+91-512-2345123,shelter@kanpurnagar.gov.in,130,"Night Stay, Basic Healthcare"
Nagpur,Maharashtra,India,Matru Seva Sangh Shelter,NGO Shelter,Sitabuldi Area,21.1458,79.0882,+91-712-2345890,contact@matruseva.org,100,"Elderly Care, Food, Medical Aid"
Indore,Madhya Pradesh,India,MP Homeless Rehabilitation Center,State Shelter,Vijay Nagar,22.7196,75.8577,+91-731-2456789,shelter@mphomeless.gov.in,170,"Rehabilitation, Job Training, Healthcare"
Thane,Maharashtra,India,Thane Municipal Shelter,Municipal Shelter,Naupada Area,19.2183,72.9781,+91-22-25434567,shelter@thanecity.gov.in,85,"Emergency Shelter, Food Service"
Bhopal,Madhya Pradesh,India,Jan Seva Ashram,Religious Shelter,TT Nagar,23.2599,77.4126,+91-755-2567890,contact@jansevaashram.org,95,"Spiritual Care, Food, Basic Shelter"
Visakhapatnam,Andhra Pradesh,India,AP Social Welfare Shelter,State Shelter,MVP Colony,17.7231,83.3975,+91-891-2678901,welfare@apshelter.gov.in,125,"Family Shelter, Education, Healthcare"
Pimpri-Chinchwad,Maharashtra,India,PCMC Homeless Shelter,Municipal Shelter,Pimpri Station Road,18.6298,73.7997,+91-20-27898765,shelter@pcmcindia.gov.in,75,"Night Accommodation, Food"
Patna,Bihar,India,Bihar Homeless Mission,State Shelter,Boring Road,25.5941,85.1376,+91-612-2789012,mission@biharhomeless.gov.in,180,"Shelter, Food, Medical Care"
Vadodara,Gujarat,India,Vadodara Municipal Shelter,Municipal Shelter,Race Course Circle,22.3072,73.1812,+91-265-2890123,shelter@vmc.gov.in,105,"Night Shelter, Basic Amenities"
Agra,Uttar Pradesh,India,Agra Nagar Nigam Shelter,Municipal Shelter,Civil Lines,27.1767,78.0081,+91-562-2901234,shelter@agranagarnigam.gov.in,115,"Temporary Stay, Food Distribution"
Ludhiana,Punjab,India,Punjab Welfare Shelter,State Shelter,Civil Lines,30.9010,75.8573,+91-161-3012345,welfare@punjabshelter.gov.in,90,"Emergency Shelter, Rehabilitation"
Nashik,Maharashtra,India,Nashik Municipal Shelter,Municipal Shelter,Mumbai Naka,19.9975,73.7898,+91-253-3123456,shelter@nashikcorp.gov.in,110,"Night Stay, Healthcare"
Faridabad,Haryana,India,Haryana Homeless Initiative,State Shelter,Sector 12,28.4089,77.3178,+91-129-3234567,initiative@haryanahomeless.gov.in,95,"Family Accommodation, Job Training"
Rajkot,Gujarat,India,Rajkot Municipal Shelter,Municipal Shelter,University Road,22.3039,70.8022,+91-281-3345678,shelter@rmc.gov.in,80,"Basic Shelter, Food Service"
Meerut,Uttar Pradesh,India,Meerut Nagar Nigam Shelter,Municipal Shelter,Civil Lines,28.9845,77.7064,+91-121-3456789,shelter@merutnagar.gov.in,120,"Night Accommodation, Medical Aid"
Varanasi,Uttar Pradesh,India,Varanasi Municipal Shelter,Municipal Shelter,Cantonment Area,25.3176,82.9739,+91-542-3567890,shelter@varanasicity.gov.in,140,"Pilgrimage Shelter, Food, Healthcare"
Srinagar,Jammu and Kashmir,India,JK Homeless Welfare,State Shelter,Lal Chowk Area,34.0837,74.7973,+91-194-3678901,welfare@jkhomeless.gov.in,100,"Winter Shelter, Warm Clothing, Food"
Aurangabad,Maharashtra,India,Aurangabad Municipal Shelter,Municipal Shelter,CIDCO Area,19.8762,75.3433,+91-240-3789012,shelter@amcaurangabad.gov.in,85,"Night Stay, Basic Amenities"
Dhanbad,Jharkhand,India,Jharkhand Social Welfare Shelter,State Shelter,Bank More,23.7957,86.4304,+91-326-3890123,welfare@jharkhanshelter.gov.in,70,"Mining Worker Shelter, Healthcare"
Amritsar,Punjab,India,Golden Temple Langar Shelter,Religious Shelter,Golden Temple Complex,31.6340,74.8723,+91-183-3901234,langar@goldentempleshelter.org,300,"Free Food, Accommodation, Religious Services"
Allahabad,Uttar Pradesh,India,Prayagraj Municipal Shelter,Municipal Shelter,Civil Lines,25.4358,81.8463,+91-532-4012345,shelter@prayagrajcorp.gov.in,160,"Kumbh Shelter, Temporary Stay"
Howrah,West Bengal,India,Howrah Municipal Shelter,Municipal Shelter,Station Area,22.5958,88.2636,+91-33-4123456,shelter@howrahcorp.gov.in,90,"Railway Shelter, Food Distribution"
Ranchi,Jharkhand,India,Ranchi Municipal Shelter,Municipal Shelter,Main Road,23.3441,85.3096,+91-651-4234567,shelter@ranchimunicipal.gov.in,75,"Tribal Welfare Shelter, Healthcare"
Jabalpur,Madhya Pradesh,India,MP Tribal Welfare Shelter,State Shelter,Civil Lines,23.1815,79.9864,+91-761-4345678,tribal@mpshelter.gov.in,110,"Tribal Community Shelter, Education"
Coimbatore,Tamil Nadu,India,TN Municipal Shelter,Municipal Shelter,RS Puram,11.0168,76.9558,+91-422-4456789,shelter@coimbatorecorp.gov.in,95,"Industrial Worker Shelter, Skills Training"
Jodhpur,Rajasthan,India,Rajasthan Desert Shelter,State Shelter,Pal Road,26.2389,73.0243,+91-291-4567890,desert@rajasthanshelter.gov.in,105,"Desert Area Shelter, Water Facility"
Madurai,Tamil Nadu,India,Madurai Corporation Shelter,Municipal Shelter,Periyar Bus Stand,9.9252,78.1198,+91-452-4678901,shelter@maduraicorp.gov.in,130,"Temple City Shelter, Food Service"
Raipur,Madhya Pradesh,India,Chhattisgarh Homeless Mission,State Shelter,Civil Lines,21.2514,81.6296,+91-771-4789012,mission@chhomeless.gov.in,115,"State Capital Shelter, Rehabilitation"
Kota,Rajasthan,India,Kota Student Shelter,Educational Shelter,Vigyan Nagar,25.2138,75.8648,+91-744-4890123,student@kotashelter.org,200,"Student Accommodation, Educational Support"
Chandigarh,Chandigarh,India,UT Homeless Shelter,Union Territory Shelter,Sector 17,30.7333,76.7794,+91-172-4901234,shelter@chandigarhut.gov.in,120,"Modern Shelter Facility, Healthcare"
Guwahati,Assam,India,Assam Tribal Welfare Shelter,State Shelter,Fancy Bazaar,26.1445,91.7362,+91-361-5012345,tribal@assamwelfare.gov.in,85,"Northeast Tribal Shelter, Cultural Programs"
Salem,Tamil Nadu,India,Salem Corporation Shelter,Municipal Shelter,Junction Area,11.6643,78.1460,+91-427-5123456,shelter@salemcorp.gov.in,80,"Industrial City Shelter, Job Training"
Thiruvananthapuram,Kerala,India,Kerala State Shelter,State Shelter,Thampanoor,8.5241,76.9366,+91-471-5234567,shelter@keralastate.gov.in,100,"Coastal Shelter, Fishermen Support"
Bhubaneswar,Odisha,India,Odisha Capital Shelter,State Shelter,Master Canteen,20.2961,85.8245,+91-674-5345678,capital@odishashelter.gov.in,110,"Government Shelter, Administrative Support"
Mysore,Karnataka,India,Mysore Palace City Shelter,Municipal Shelter,KR Circle,12.2958,76.6394,+91-821-5456789,shelter@mysorecity.gov.in,90,"Heritage City Shelter, Tourism Support"
Bareilly,Uttar Pradesh,India,UP Rural Shelter,State Shelter,Civil Lines,28.3670,79.4304,+91-581-5567890,rural@upshelter.gov.in,125,"Rural Migration Shelter, Skills Training"
Aligarh,Uttar Pradesh,India,Aligarh Municipal Shelter,Municipal Shelter,University Area,27.8974,78.0880,+91-571-5678901,shelter@aligarhcorp.gov.in,105,"Educational City Shelter, Student Support"
Moradabad,Uttar Pradesh,India,UP Handicraft Shelter,State Shelter,Civil Lines,28.8386,78.7733,+91-591-5789012,handicraft@upshelter.gov.in,85,"Artisan Shelter, Craft Training"
Jalandhar,Punjab,India,Punjab Sports City Shelter,State Shelter,Model Town,31.3260,75.5762,+91-181-5890123,sports@punjabshelter.gov.in,95,"Sports Person Shelter, Training Facilities"
Tiruchirappalli,Tamil Nadu,India,Trichy Corporation Shelter,Municipal Shelter,Junction Area,10.7905,78.7047,+91-431-5901234,shelter@trichycorp.gov.in,115,"Central Tamil Nadu Shelter, Transport Hub"
Bikaneer,Rajasthan,India,Rajasthan Camel Shelter,Specialized Shelter,Kote Gate,28.0229,73.3119,+91-151-6012345,camel@rajasthanshelter.gov.in,60,"Desert Community Shelter, Animal Care"
Saharanpur,Uttar Pradesh,India,UP Furniture Hub Shelter,State Shelter,Court Road,29.9680,77.5552,+91-132-6123456,furniture@upshelter.gov.in,90,"Furniture Worker Shelter, Trade Training"
Gorakhpur,Uttar Pradesh,India,UP Eastern Shelter,State Shelter,Civil Lines,26.7606,83.3732,+91-551-6234567,eastern@upshelter.gov.in,140,"Eastern UP Shelter, Agricultural Support"
Bikaner,Rajasthan,India,Desert Heritage Shelter,Cultural Shelter,Old City,28.0229,73.3119,+91-151-6345678,heritage@rajasthanshelter.gov.in,75,"Cultural Heritage Shelter, Arts Training"
Ujjain,Madhya Pradesh,India,MP Religious Shelter,Religious Shelter,Mahakaleshwar Area,23.1765,75.7885,+91-734-6456789,religious@mpshelter.gov.in,180,"Pilgrimage Shelter, Religious Services"
Jamnagar,Gujarat,India,Gujarat Coastal Shelter,State Shelter,Bedi Bunder,22.4707,70.0577,+91-288-6567890,coastal@gujaratshelter.gov.in,70,"Coastal Community Shelter, Marine Support"
Bhilai,Chhattisgarh,India,Chhattisgarh Steel Shelter,Industrial Shelter,Steel Plant Area,21.1938,81.3509,+91-788-6678901,steel@chhattisgarshshelter.gov.in,130,"Steel Worker Shelter, Industrial Training"
Cuttak,Odisha,India,Odisha Silver City Shelter,State Shelter,Buxi Bazaar,20.4625,85.8828,+91-671-6789012,silver@odishashelter.gov.in,95,"Heritage Shelter, Craft Training"
Firozabad,Uttar Pradesh,India,UP Glass City Shelter,Industrial Shelter,Tundla Road,27.1592,78.3957,+91-561-6890123,glass@upshelter.gov.in,80,"Glass Worker Shelter, Industrial Training"
Kochi,Kerala,India,Kerala Port City Shelter,State Shelter,Marine Drive,9.9312,76.2673,+91-484-6901234,port@keralastate.gov.in,110,"Port Worker Shelter, Marine Training"
Bhavnagar,Gujarat,India,Gujarat Ship Building Shelter,Industrial Shelter,Alang Road,21.7645,72.1519,+91-278-7012345,shipbuilding@gujaratshelter.gov.in,85,"Shipyard Worker Shelter, Technical Training"
Dehradun,Uttarakhand,India,Uttarakhand Hill Station Shelter,State Shelter,Clock Tower,30.3165,78.0322,+91-135-7123456,hill@uttarakhanshelter.gov.in,100,"Mountain Community Shelter, Tourism Support"
Durgapur,West Bengal,India,WB Steel City Shelter,State Shelter,City Center,23.5204,87.3119,+91-343-7234567,steel@wbshelter.gov.in,90,"Industrial Shelter, Steel Worker Support"
Asansol,West Bengal,India,WB Coal Belt Shelter,State Shelter,GT Road,23.6739,86.9524,+91-341-7345678,coal@wbshelter.gov.in,105,"Coal Mining Shelter, Miner Support"
Kolhapur,Maharashtra,India,Maharashtra Sugar Belt Shelter,State Shelter,Station Road,16.7050,74.2433,+91-231-7456789,sugar@maharashtrashelter.gov.in,95,"Sugar Industry Shelter, Agricultural Support"
Ajmer,Rajasthan,India,Rajasthan Sufi Shelter,Religious Shelter,Dargah Road,26.4499,74.6399,+91-145-7567890,sufi@rajasthanshelter.gov.in,150,"Religious Pilgrimage Shelter, Spiritual Care"
Akola,Maharashtra,India,Maharashtra Cotton Shelter,Agricultural Shelter,Cotton Market,20.7002,77.0082,+91-724-7678901,cotton@maharashtrashelter.gov.in,75,"Cotton Farmer Shelter, Agricultural Training"
Gulbarga,Karnataka,India,Karnataka North Shelter,State Shelter,Station Road,17.3297,76.8343,+91-8472-7789012,north@karnatakastate.gov.in,110,"North Karnataka Shelter, Rural Development"
Jamshedpur,Jharkhand,India,Jharkhand Steel City Shelter,Industrial Shelter,Bistupur,22.8046,86.2029,+91-657-7890123,steelcity@jharkhanshelter.gov.in,140,"Steel City Shelter, Industrial Worker Support"
Ujjain,Madhya Pradesh,India,MP Kumbh Mela Shelter,Event Shelter,Triveni Area,23.1765,75.7885,+91-734-7901234,kumbh@mpshelter.gov.in,250,"Festival Shelter, Mass Accommodation"
Belgaum,Karnataka,India,Karnataka Border Shelter,State Shelter,Camp Area,15.8497,74.4977,+91-831-8012345,border@karnatakastate.gov.in,85,"Border Area Shelter, Inter-state Support"
Siliguri,West Bengal,India,WB Himalayan Foothills Shelter,State Shelter,Hill Cart Road,26.7271,88.3953,+91-353-8123456,himalayan@wbshelter.gov.in,90,"Foothill Community Shelter, Tea Garden Support"
Avadi,Tamil Nadu,India,TN Defense Shelter,Specialized Shelter,Defence Colony,13.1067,80.0975,+91-44-8234567,defence@tnshelter.gov.in,70,"Defense Personnel Family Shelter"
Rajpur Sonarpur,West Bengal,India,WB Suburban Shelter,Municipal Shelter,Sonarpur Station,22.4617,88.4314,+91-33-8345678,suburban@wbshelter.gov.in,60,"Suburban Community Shelter, Rail Commuter Support"
Vasai-Virar,Maharashtra,India,Maharashtra Suburban Shelter,Municipal Shelter,Vasai Road,19.4412,72.8397,+91-250-8456789,vasai@maharashtrashelter.gov.in,120,"Mumbai Suburban Shelter, Commuter Support"
Amravati,Maharashtra,India,Maharashtra Orange City Shelter,State Shelter,Cotton Market,20.9374,77.7796,+91-721-8567890,orange@maharashtrashelter.gov.in,100,"Orange Belt Shelter, Agricultural Support"
Nanded,Maharashtra,India,Maharashtra Sikh Shelter,Religious Shelter,Gurudwara Road,19.1383,77.2975,+91-2462-8678901,sikh@maharashtrashelter.gov.in,130,"Sikh Pilgrimage Shelter, Religious Services"
Kolkata,West Bengal,India,Mother Teresa Shelter,Charitable Shelter,Park Street Area,22.5626,88.3565,+91-33-8789012,motherteresa@kolkatashelter.org,200,"Charitable Care, Medical Support, Food Service"
Davangere,Karnataka,India,Karnataka Cotton Hub Shelter,Agricultural Shelter,PB Road,14.4644,75.9220,+91-8192-8890123,cottonhub@karnatakastate.gov.in,80,"Cotton Hub Shelter, Agricultural Training"
Kozhikode,Kerala,India,Kerala Spice Coast Shelter,State Shelter,Beach Road,11.2588,75.7804,+91-495-8901234,spice@keralastate.gov.in,95,"Spice Trade Shelter, Maritime Support"
Kurnool,Andhra Pradesh,India,AP Rayalaseema Shelter,State Shelter,Station Road,15.8281,78.0373,+91-8518-9012345,rayalaseema@apshelter.gov.in,105,"Rayalaseema Region Shelter, Drought Relief"
Bokaro,Jharkhand,India,Jharkhand Steel Town Shelter,Industrial Shelter,Sector 4,23.6693,85.9556,+91-6542-9123456,steeltown@jharkhanshelter.gov.in,115,"Steel Township Shelter, Planned City Support"
South Dumdum,West Bengal,India,WB Industrial Shelter,Municipal Shelter,Jessore Road,22.6133,88.3967,+91-33-9234567,industrial@wbshelter.gov.in,70,"Industrial Area Shelter, Factory Worker Support"
Bellary,Karnataka,India,Karnataka Mining Shelter,Industrial Shelter,Gandhi Nagar,15.1394,76.9214,+91-8392-9345678,mining@karnatakastate.gov.in,90,"Mining Community Shelter, Rehabilitation"
Parbhani,Maharashtra,India,Maharashtra Marathwada Shelter,State Shelter,Station Road,19.2608,76.7734,+91-2452-9456789,marathwada@maharashtrashelter.gov.in,85,"Marathwada Region Shelter, Drought Support"
Tumkur,Karnataka,India,Karnataka Education Hub Shelter,Educational Shelter,University Road,13.3379,77.1022,+91-816-9567890,education@karnatakastate.gov.in,100,"Education Hub Shelter, Student Accommodation"
Khammam,Telangana,India,Telangana Coal Belt Shelter,Industrial Shelter,Wyra Road,17.2473,80.1514,+91-8742-9678901,coalBelt@telanganastate.gov.in,95,"Coal Mining Shelter, Tribal Support"
Ozhukarai,Puducherry,India,Puducherry UT Shelter,Union Territory Shelter,ECR Road,11.9416,79.7865,+91-413-9789012,shelter@puducherry.gov.in,65,"Union Territory Shelter, Coastal Community"
Bihar Sharif,Bihar,India,Bihar Heritage Shelter,State Shelter,Nalanda Road,25.2073,85.5239,+91-6112-9890123,heritage@biharshelter.gov.in,110,"Heritage Site Shelter, Educational Tourism"
Panipat,Haryana,India,Haryana Textile Shelter,Industrial Shelter,GT Road,29.3909,76.9635,+91-180-9901234,textile@haryanashelter.gov.in,100,"Textile Hub Shelter, Handloom Support"
Darbhanga,Bihar,India,Bihar Mithila Shelter,Cultural Shelter,Station Road,26.1542,85.8918,+91-6272-0012345,mithila@biharshelter.gov.in,120,"Mithila Culture Shelter, Art Training"
Bally,West Bengal,India,WB Jute Mill Shelter,Industrial Shelter,GT Road,22.6522,88.3383,+91-33-0123456,jute@wbshelter.gov.in,80,"Jute Industry Shelter, Mill Worker Support"
Ambarnath,Maharashtra,India,Maharashtra MIDC Shelter,Industrial Shelter,MIDC Area,19.1941,73.1956,+91-251-0234567,midc@maharashtrashelter.gov.in,75,"Industrial Estate Shelter, Chemical Worker Support"
Muzaffarnagar,Uttar Pradesh,India,UP Sugar Belt Shelter,Industrial Shelter,Delhi Road,29.4727,77.7085,+91-131-0345678,sugarbelt@upshelter.gov.in,105,"Sugar Industry Shelter, Agricultural Processing"
Bhatpara,West Bengal,India,WB Paper Mill Shelter,Industrial Shelter,Jagaddal Road,22.6739,88.4023,+91-33-0456789,papermill@wbshelter.gov.in,70,"Paper Industry Shelter, Mill Worker Support"
Panvel,Maharashtra,India,Maharashtra CIDCO Shelter,Planned City Shelter,CIDCO Complex,19.0144,73.1175,+91-22-0567890,cidco@maharashtrashelter.gov.in,110,"Planned City Shelter, New Mumbai Support"
Karnal,Haryana,India,Haryana Rice Bowl Shelter,Agricultural Shelter,GT Road,29.6857,76.9905,+91-184-0678901,ricebowl@haryanashelter.gov.in,95,"Rice Belt Shelter, Agricultural Training"
Kishanganj,Bihar,India,Bihar Border Shelter,State Shelter,Station Road,26.1124,87.9486,+91-6424-0789012,border@biharshelter.gov.in,85,"Border Area Shelter, Cross-border Support"
Kadapa,Andhra Pradesh,India,AP Cuddapah Shelter,State Shelter,Bypass Road,14.4426,78.8242,+91-8562-0890123,cuddapah@apshelter.gov.in,100,"District Shelter, Administrative Support"
Ramagundam,Telangana,India,Telangana Coal Town Shelter,Industrial Shelter,NTPC Colony,18.4548,79.4738,+91-8734-0901234,coaltown@telanganastate.gov.in,90,"Coal Township Shelter, Power Plant Worker Support"
Jalgaon,Maharashtra,India,Maharashtra Banana Belt Shelter,Agricultural Shelter,Station Road,21.0077,75.5626,+91-257-1012345,banana@maharashtrashelter.gov.in,105,"Banana Belt Shelter, Fruit Processing Training"
Ambattur,Tamil Nadu,India,TN Industrial Shelter,Municipal Shelter,Industrial Estate,13.1143,80.1548,+91-44-1123456,industrial@tnshelter.gov.in,85,"Industrial Township Shelter, Manufacturing Support"
Bharatpur,Rajasthan,India,Rajasthan Bird Sanctuary Shelter,Eco Shelter,Keoladeo Road,27.2152,77.4919,+91-5644-1234567,bird@rajasthanshelter.gov.in,70,"Eco-tourism Shelter, Wildlife Conservation"
Begusarai,Bihar,India,Bihar Fertilizer Town Shelter,Industrial Shelter,Fertilizer Township,25.4180,86.1233,+91-6243-1345678,fertilizer@biharshelter.gov.in,95,"Fertilizer Plant Shelter, Chemical Worker Support"
New Delhi,Delhi,India,Capital City Night Shelter,Government Shelter,ISBT Kashmere Gate,28.6667,77.2167,+91-11-1456789,capital@delhishelter.gov.in,300,"Capital City Shelter, Transit Support, Government Services"
Hapur,Uttar Pradesh,India,UP Paper Mill Shelter,Industrial Shelter,Delhi Road,28.7294,77.7690,+91-122-1567890,papermill@upshelter.gov.in,80,"Paper Industry Shelter, Mill Worker Accommodation"
Purnia,Bihar,India,Bihar Koshi Shelter,State Shelter,Line Bazaar,25.7771,87.4753,+91-6454-1678901,koshi@biharshelter.gov.in,110,"River Valley Shelter, Flood Relief Support"
Satna,Madhya Pradesh,India,MP Cement City Shelter,Industrial Shelter,Rewa Road,24.5667,80.8333,+91-7672-1789012,cement@mpshelter.gov.in,90,"Cement Industry Shelter, Limestone Mining Support"
Mau,Uttar Pradesh,India,UP Poweroom Shelter,Industrial Shelter,Azamgarh Road,25.9417,83.5611,+91-547-1890123,poweroom@upshelter.gov.in,85,"Textile Weaving Shelter, Powerloom Training"
Cochin,Kerala,India,Kerala Naval Shelter,Defense Shelter,Naval Base,9.9312,76.2673,+91-484-1901234,naval@keralastate.gov.in,120,"Naval Personnel Shelter, Defense Family Support"
Tirunelveli,Tamil Nadu,India,TN Southern Shelter,State Shelter,Junction Area,8.7139,77.7567,+91-462-2012345,southern@tnshelter.gov.in,100,"South Tamil Nadu Shelter, Agricultural Support"
Sasaram,Bihar,India,Bihar Sher Shah Shelter,Heritage Shelter,GT Road,24.9530,84.0168,+91-6184-2123456,shershah@biharshelter.gov.in,90,"Historical Shelter, Heritage Tourism"
Erode,Tamil Nadu,India,TN Textile Hub Shelter,Industrial Shelter,Perundurai Road,11.3410,77.7172,+91-424-2234567,textilehub@tnshelter.gov.in,105,"Textile Manufacturing Shelter, Handloom Support"
Batala,Punjab,India,Punjab Sports Goods Shelter,Industrial Shelter,GT Road,31.8187,75.2061,+91-1871-2345678,sports@punjabshelter.gov.in,75,"Sports Goods Manufacturing Shelter, Industrial Training"
Pathankot,Punjab,India,Punjab Border Security Shelter,Defense Shelter,Cantonment Area,32.2746,75.6473,+91-186-2456789,border@punjabshelter.gov.in,85,"Border Security Shelter, Defense Personnel Support"
Patiala,Punjab,India,Punjab Royal City Shelter,State Shelter,Mall Road,30.3398,76.3869,+91-175-2567890,royal@punjabshelter.gov.in,110,"Royal Heritage Shelter, Cultural Tourism"
Bathinda,Punjab,India,Punjab Cotton Belt Shelter,Agricultural Shelter,Railway Station Road,30.2110,74.9455,+91-164-2678901,cotton@punjbathshelter.gov.in,95,"Cotton Farming Shelter, Agricultural Support"
Mohali,Punjab,India,Punjab IT City Shelter,Modern Shelter,IT City Phase 8,30.7046,76.7179,+91-172-2789012,itcity@punjabshelter.gov.in,130,"IT Professional Shelter, Tech Support"
Hoshiarpur,Punjab,India,Punjab Wood City Shelter,Industrial Shelter,Jalandhar Road,31.5338,75.9123,+91-1882-2890123,wood@punjabshelter.gov.in,80,"Wood Industry Shelter, Furniture Making Training"
Kapurthala,Punjab,India,Punjab Railway Shelter,Transport Shelter,Railway Colony,31.3800,75.3804,+91-1822-2901234,railway@punjabshelter.gov.in,70,"Railway Worker Shelter, Transport Support"
Moga,Punjab,India,Punjab Agricultural Shelter,Farming Shelter,Bus Stand Road,30.8022,75.1697,+91-1636-3012345,agriculture@punjabshelter.gov.in,90,"Farming Community Shelter, Crop Support"
Fazilka,Punjab,India,Punjab Border Town Shelter,Border Shelter,Ferozepur Road,30.4028,74.0284,+91-1638-3123456,bordertown@punjabshelter.gov.in,65,"Border Community Shelter, Cross-border Trade"
Barnala,Punjab,India,Punjab Rural Shelter,Rural Shelter,Sangrur Road,30.3742,75.5462,+91-1679-3234567,rural@punjabshelter.gov.in,75,"Rural Development Shelter, Village Support"
Malerkotla,Punjab,India,Punjab Muslim Heritage Shelter,Religious Shelter,Bazar Area,30.5290,75.8796,+91-1675-3345678,heritage@punjabshelter.gov.in,85,"Religious Harmony Shelter, Cultural Integration"
Sangrur,Punjab,India,Punjab Kisan Shelter,Farmer Shelter,Patiala Road,30.2459,75.8421,+91-1672-3456789,kisan@punjabshelter.gov.in,100,"Farmer Support Shelter, Agricultural Training"
Firozpur,Punjab,India,Punjab Cantonment Shelter,Military Shelter,Cantonment Area,30.9251,74.6185,+91-1632-3567890,cantonment@punjabshelter.gov.in,90,"Military Family Shelter, Defense Support"
Muktsar,Punjab,India,Punjab Liberation Shelter,Historical Shelter,Gurudwara Road,30.4756,74.5142,+91-1633-3678901,liberation@punjabshelter.gov.in,80,"Historical Shelter, Sikh Heritage"
Fatehgarh Sahib,Punjab,India,Punjab Martyrdom Shelter,Memorial Shelter,Gurudwara Complex,30.6446,76.3951,+91-1763-3789012,martyrdom@punjabshelter.gov.in,95,"Memorial Shelter, Religious Services"
Abohar,Punjab,India,Punjab Cotton Trade Shelter,Trade Shelter,Cotton Market,30.1204,74.1995,+91-1634-3890123,cottontrade@punjabshelter.gov.in,105,"Cotton Trading Shelter, Market Support"
Kharar,Punjab,India,Punjab New Town Shelter,Modern Shelter,Landran Road,30.7414,76.6469,+91-160-3901234,newtown@punjabshelter.gov.in,115,"Modern Township Shelter, Urban Development"
Rajpura,Punjab,India,Punjab Industrial Hub Shelter,Industrial Shelter,Ambala Road,30.4820,76.5946,+91-1762-4012345,industrialhub@punjabshelter.gov.in,85,"Industrial Development Shelter, Manufacturing"
Nabha,Punjab,India,Punjab Heritage Jail Shelter,Unique Shelter,Old Jail Complex,30.3748,76.1540,+91-1765-4123456,heritage@punjabshelter.gov.in,70,"Heritage Conservation Shelter, Historical Tourism"
Sunam,Punjab,India,Punjab Textile Shelter,Industrial Shelter,Sangrur Road,30.1281,75.7993,+91-1677-4234567,textile@punjabshelter.gov.in,90,"Textile Industry Shelter, Handloom Training"
Raikot,Punjab,India,Punjab Agricultural Hub Shelter,Farming Shelter,Ludhiana Road,30.6515,75.5961,+91-161-4345678,agribub@punjabshelter.gov.in,80,"Agricultural Hub Shelter, Farming Technology"
Khanna,Punjab,India,Punjab Trade Center Shelter,Commercial Shelter,GT Road,30.7058,76.2219,+91-1628-4456789,tradecenter@punjabshelter.gov.in,95,"Trade Center Shelter, Commercial Support"
Samana,Punjab,India,Punjab Rural Development Shelter,Development Shelter,Patiala Road,30.1497,76.1927,+91-1764-4567890,development@punjabshelter.gov.in,75,"Rural Development Shelter, Village Empowerment"
Mandi Gobindgarh,Punjab,India,Punjab Steel City Shelter,Industrial Shelter,Steel Complex,30.6696,76.3049,+91-1628-4678901,steel@punjabshelter.gov.in,110,"Steel Industry Shelter, Metal Working Training"
Doraha,Punjab,India,Punjab Highway Shelter,Transport Shelter,National Highway,30.7969,76.0241,+91-1624-4789012,highway@punjabshelter.gov.in,65,"Highway Rest Shelter, Truck Driver Support"
Phillaur,Punjab,India,Punjab River Side Shelter,Riverside Shelter,Sutlej Bank,31.0186,75.7889,+91-1872-4890123,riverside@punjabshelter.gov.in,85,"Riverside Community Shelter, Fishermen Support"
Kartarpur,Punjab,India,Punjab Corridor Shelter,Border Shelter,Kartarpur Corridor,31.4540,75.1667,+91-1872-4901234,corridor@punjabshelter.gov.in,120,"Pilgrimage Shelter, Cross-border Support"
Gidderbaha,Punjab,India,Punjab Cotton Field Shelter,Agricultural Shelter,Muktsar Road,30.2001,74.6667,+91-1634-5012345,cottonfield@punjabshelter.gov.in,70,"Cotton Cultivation Shelter, Farmer Training"
Malout,Punjab,India,Punjab Border Agriculture Shelter,Border Shelter,Fazilka Road,30.1901,74.4833,+91-1638-5123456,borderagri@punjabshelter.gov.in,80,"Border Agriculture Shelter, Cross-border Farming"
Zirakpur,Punjab,India,Punjab Satellite Town Shelter,Urban Shelter,Chandigarh Road,30.6417,76.8175,+91-172-5234567,satellite@punjabshelter.gov.in,140,"Satellite Town Shelter, Urban Development"
Dera Bassi,Punjab,India,Punjab Industrial Town Shelter,Industrial Shelter,Ambala Road,30.5989,76.8397,+91-172-5345678,industrial@punjabshelter.gov.in,100,"Industrial Township Shelter, Manufacturing Hub"
Morinda,Punjab,India,Punjab Agricultural Town Shelter,Agricultural Shelter,Chandigarh Road,30.7897,76.4992,+91-1762-5456789,agritown@punjabshelter.gov.in,75,"Agricultural Town Shelter, Farming Support"
Ropar,Punjab,India,Punjab Sutlej Shelter,River Shelter,Sutlej River Bank,30.9697,76.5211,+91-1881-5567890,sutlej@punjabshelter.gov.in,90,"River Community Shelter, Water Conservation"
Chamkaur Sahib,Punjab,India,Punjab Battlefield Shelter,Historical Shelter,Gurudwara Area,30.8700,76.4167,+91-1763-5678901,battlefield@punjabshelter.gov.in,85,"Historical Battlefield Shelter, Heritage Tourism"
Anandpur Sahib,Punjab,India,Punjab Holy City Shelter,Religious Shelter,Takht Sri Keshgarh Sahib,31.2389,76.5000,+91-1887-5789012,holycity@punjabshelter.gov.in,200,"Holy City Shelter, Religious Pilgrimage"
Nangal,Punjab,India,Punjab Dam City Shelter,Infrastructure Shelter,Bhakra Dam Road,31.3897,76.3742,+91-1887-5890123,dam@punjabshelter.gov.in,95,"Dam Township Shelter, Hydroelectric Support"
Kiratpur Sahib,Punjab,India,Punjab Cremation Shelter,Religious Shelter,Sutlej Ghat,31.1833,76.4667,+91-1881-5901234,cremation@punjabshelter.gov.in,100,"Religious Cremation Shelter, Spiritual Services"
Rupnagar,Punjab,India,Punjab District Shelter,Administrative Shelter,Civil Lines,30.9697,76.5211,+91-1881-6012345,district@punjabshelter.gov.in,120,"District Administrative Shelter, Government Services"
Gurdaspur,Punjab,India,Punjab Border District Shelter,Border Shelter,Batala Road,32.0420,75.4058,+91-1874-6123456,borderdistrict@punjabshelter.gov.in,110,"Border District Shelter, Cross-border Administration"
Tarn Taran,Punjab,India,Punjab Holy Tank Shelter,Religious Shelter,Gurudwara Complex,31.4515,74.9258,+91-1852-6234567,holytank@punjabshelter.gov.in,130,"Holy Tank Shelter, Religious Tourism"
Khem Karan,Punjab,India,Punjab War Memorial Shelter,Memorial Shelter,Indo-Pak Border,31.1531,74.5667,+91-1852-6345678,warmemorial@punjabshelter.gov.in,80,"War Memorial Shelter, Defense Heritage"
Patti,Punjab,India,Punjab River Town Shelter,Riverside Shelter,Beas River,31.2833,74.8667,+91-1852-6456789,rivertown@punjabshelter.gov.in,70,"River Town Shelter, Water Community"
Dinanagar,Punjab,India,Punjab Border Security Shelter,Security Shelter,Pakistan Border,32.1370,75.4744,+91-1874-6567890,bordersecurity@punjabshelter.gov.in,90,"Border Security Shelter, BSF Support"
Dera Baba Nanak,Punjab,India,Punjab Corridor Town Shelter,Pilgrimage Shelter,Kartarpur Corridor,32.0333,75.0333,+91-1872-6678901,corridortown@punjabshelter.gov.in,150,"Corridor Town Shelter, International Pilgrimage"
Qadian,Punjab,India,Punjab Religious Heritage Shelter,Religious Shelter,Ahmadiyya Complex,31.8167,75.3833,+91-1872-6789012,religious@punjabshelter.gov.in,100,"Religious Heritage Shelter, Faith Tourism"
Fatehabad,Haryana,India,Haryana Cotton Belt Shelter,Agricultural Shelter,Hisar Road,29.5151,75.4556,+91-1667-6890123,cottonbelt@haryanashelter.gov.in,105,"Cotton Belt Shelter, Agricultural Development"
Sirsa,Haryana,India,Haryana Border Town Shelter,Border Shelter,Rajasthan Border,29.5347,75.0269,+91-1666-6901234,bordertown@haryanashelter.gov.in,95,"Border Town Shelter, Inter-state Commerce"
Bhiwani,Haryana,India,Haryana Textile Hub Shelter,Industrial Shelter,Delhi Road,28.7933,76.1395,+91-1664-7012345,textilehub@haryanashelter.gov.in,110,"Textile Hub Shelter, Handloom Industry"
Hisar,Haryana,India,Haryana Steel City Shelter,Industrial Shelter,Delhi Road,29.1492,75.7217,+91-1662-7123456,steelcity@haryanashelter.gov.in,120,"Steel City Shelter, Heavy Industry"
Rohtak,Haryana,India,Haryana Education Hub Shelter,Educational Shelter,Delhi Road,28.8955,76.6066,+91-1262-7234567,education@haryanashelter.gov.in,100,"Education Hub Shelter, Student Accommodation"
Sonipat,Haryana,India,Haryana Industrial Corridor Shelter,Industrial Shelter,GT Road,28.9931,77.0151,+91-130-7345678,corridor@haryanashelter.gov.in,115,"Industrial Corridor Shelter, Manufacturing Belt"
Jind,Haryana,India,Haryana Agricultural Hub Shelter,Agricultural Shelter,Rohtak Road,29.3157,76.3150,+91-1681-7456789,agrishub@haryanashelter.gov.in,90,"Agricultural Hub Shelter, Farming Technology"
Kaithal,Haryana,India,Haryana Rice Bowl Shelter,Agricultural Shelter,Ambala Road,29.8021,76.3991,+91-1746-7567890,ricebowl@haryanashelter.gov.in,85,"Rice Bowl Shelter, Paddy Cultivation"
Kurukshetra,Haryana,India,Haryana Holy Land Shelter,Religious Shelter,Thanesar Road,29.9692,76.8780,+91-1744-7678901,holyland@haryanashelter.gov.in,180,"Holy Land Shelter, Religious Tourism"
Yamunanagar,Haryana,India,Haryana Industrial Town Shelter,Industrial Shelter,Jagadhri Road,30.1290,77.2674,+91-1732-7789012,industrialtown@haryanashelter.gov.in,100,"Industrial Town Shelter, Paper Industry"
Ambala,Haryana,India,Haryana Cantonment Shelter,Military Shelter,Cantonment Area,30.3752,76.7821,+91-171-7890123,cantonment@haryanashelter.gov.in,130,"Cantonment Shelter, Military Family Support"
Panchkula,Haryana,India,Haryana Planned City Shelter,Modern Shelter,Sector 5,30.6942,76.8606,+91-172-7901234,planned@haryanashelter.gov.in,140,"Planned City Shelter, Urban Development"
Rewari,Haryana,India,Haryana Heritage Shelter,Heritage Shelter,Delhi Road,28.1991,76.6193,+91-1274-8012345,heritage@haryanashelter.gov.in,80,"Heritage Town Shelter, Historical Tourism"
Mahendragarh,Haryana,India,Haryana Border District Shelter,Border Shelter,Rajasthan Border,28.2811,76.1434,+91-1281-8123456,borderdistrict@haryanashelter.gov.in,75,"Border District Shelter, Inter-state Support"
Palwal,Haryana,India,Haryana Industrial Growth Shelter,Industrial Shelter,Mathura Road,28.1441,77.3267,+91-1275-8234567,growth@haryanashelter.gov.in,95,"Industrial Growth Shelter, Manufacturing Hub"
Gurgaon,Haryana,India,Haryana Millennium City Shelter,Corporate Shelter,MG Road,28.4595,77.0266,+91-124-8345678,millennium@haryanashelter.gov.in,200,"Millennium City Shelter, Corporate Support"
Mewat,Haryana,India,Haryana Minority Community Shelter,Community Shelter,Nuh Road,28.1000,77.0000,+91-1267-8456789,minority@haryanashelter.gov.in,110,"Minority Community Shelter, Social Integration"
Bahadurgarh,Haryana,India,Haryana Industrial City Shelter,Industrial Shelter,Delhi Road,28.6918,76.9378,+91-1276-8567890,industrial@haryanashelter.gov.in,105,"Industrial City Shelter, Small Scale Industry"
Jhajjar,Haryana,India,Haryana Agricultural District Shelter,Agricultural Shelter,Rohtak Road,28.6062,76.6565,+91-1251-8678901,agriDistrict@haryanashelter.gov.in,85,"Agricultural District Shelter, Rural Development"
Narnaul,Haryana,India,Haryana Aravalli Shelter,Hill Shelter,Aravalli Hills,28.0447,76.1089,+91-1282-8789012,aravalli@haryanashelter.gov.in,70,"Aravalli Hills Shelter, Tribal Community"
Ladwa,Haryana,India,Haryana Rural Development Shelter,Rural Shelter,Kurukshetra Road,29.9935,77.0429,+91-1744-8890123,rural@haryanashelter.gov.in,65,"Rural Development Shelter, Village Upliftment"
Taraori,Haryana,India,Haryana Agricultural Town Shelter,Agricultural Shelter,Karnal Road,29.7681,76.9289,+91-1746-8901234,agritown@haryanashelter.gov.in,75,"Agricultural Town Shelter, Crop Processing"
Indri,Haryana,India,Haryana Border Agriculture Shelter,Agricultural Shelter,Punjab Border,29.8833,76.9667,+91-1746-9012345,borderagri@haryanashelter.gov.in,70,"Border Agriculture Shelter, Cross-state Farming"
Ratia,Haryana,India,Haryana Cotton Market Shelter,Market Shelter,Cotton Mandi,29.6903,75.5771,+91-1667-9123456,cottonmarket@haryanashelter.gov.in,80,"Cotton Market Shelter, Trade Support"
Tohana,Haryana,India,Haryana Agricultural Hub Shelter,Agricultural Shelter,Hisar Road,29.7000,75.9000,+91-1692-9234567,agriHub@haryanashelter.gov.in,75,"Agricultural Hub Shelter, Farming Innovation"
Dabwali,Haryana,India,Haryana Border Trade Shelter,Trade Shelter,Punjab Border,29.9500,74.7333,+91-1668-9345678,bordertrade@haryanashelter.gov.in,85,"Border Trade Shelter, Interstate Commerce"
Ellenabad,Haryana,India,Haryana Cotton Processing Shelter,Industrial Shelter,Sirsa Road,29.4667,74.6667,+91-1696-9456789,cottonprocess@haryanashelter.gov.in,70,"Cotton Processing Shelter, Textile Industry"
Rania,Haryana,India,Haryana Agricultural Border Shelter,Agricultural Shelter,Punjab Border,29.5167,75.2000,+91-1696-9567890,agriborder@haryanashelter.gov.in,65,"Agricultural Border Shelter, Cross-border Farming"
Adampur,Haryana,India,Haryana Air Force Shelter,Defense Shelter,Air Force Station,29.7833,75.7167,+91-1696-9678901,airforce@haryanashelter.gov.in,90,"Air Force Shelter, Defense Personnel Support"
Kalanwali,Haryana,India,Haryana Desert Border Shelter,Border Shelter,Rajasthan Border,29.8333,74.9667,+91-1668-9789012,desertborder@haryanashelter.gov.in,60,"Desert Border Shelter, Arid Region Support"
Bhattu Kalan,Haryana,India,Haryana Rural Heritage Shelter,Heritage Shelter,Village Area,29.5667,75.2667,+91-1696-9890123,ruralheritage@haryanashelter.gov.in,55,"Rural Heritage Shelter, Village Culture"
Odhan,Haryana,India,Haryana Agricultural Village Shelter,Village Shelter,Sirsa Road,29.6167,75.1833,+91-1696-9901234,agrivillage@haryanashelter.gov.in,50,"Agricultural Village Shelter, Farming Community"